"Longitude (x)","Latitude (y)","Station Name","Climate ID","Date/Time (LST)","Year","Month","Day","Time (LST)","Flag","Temp (°C)","Temp Flag","Dew Point Temp (°C)","Dew Point Temp Flag","Rel Hum (%)","Rel Hum Flag","Precip. Amount (mm)","Precip. Amount Flag","Wind Dir (10s deg)","Wind Dir Flag","Wind Spd (km/h)","Wind Spd Flag","Visibility (km)","Visibility Flag","Stn Press (kPa)","Stn Press Flag","Hmdx","Hmdx Flag","Wind Chill","Wind Chill Flag","Weather"
"-85.81","79.99","EUREKA A","2401203","2024-12-01 00:00","2024","12","01","00:00","","-21.1","","-24.2","","76","","","","13","","33","","24.1","","101.50","","","","-35","","Blowing Snow"
"-85.81","79.99","EUREKA A","2401203","2024-12-01 01:00","2024","12","01","01:00","","-20.9","","-24.2","","75","","","","13","","33","","24.1","","101.44","","","","-34","","Blowing Snow"
"-85.81","79.99","EUREKA A","2401203","2024-12-01 02:00","2024","12","01","02:00","","-20.9","","-24.1","","76","","","","13","","36","","24.1","","101.38","","","","-35","","NA"
"-85.81","79.99","EUREKA A","2401203","2024-12-01 03:00","2024","12","01","03:00","","-20.6","","-23.8","","76","","","","13","","39","","24.1","","101.30","","","","-35","","Blowing Snow"
"-85.81","79.99","EUREKA A","2401203","2024-12-01 04:00","2024","12","01","04:00","","-20.6","","-23.7","","77","","","","12","","37","","24.1","","101.21","","","","-34","","Blowing Snow"
"-85.81","79.99","EUREKA A","2401203","2024-12-01 05:00","2024","12","01","05:00","","-20.2","","-23.4","","76","","","","14","","34","","24.1","","101.15","","","","-34","","Blowing Snow"
"-85.81","79.99","EUREKA A","2401203","2024-12-01 06:00","2024","12","01","06:00","","-20.5","","-23.6","","76","","","","12","","36","","24.1","","101.08","","","","-34","","Blowing Snow"
"-85.81","79.99","EUREKA A","2401203","2024-12-01 07:00","2024","12","01","07:00","","-20.4","","-23.4","","77","","","","12","","40","","24.1","","101.00","","","","-35","","NA"
"-85.81","79.99","EUREKA A","2401203","2024-12-01 08:00","2024","12","01","08:00","","-20.7","","-23.4","","79","","","","11","","36","","24.1","","100.89","","","","-34","","Blowing Snow"
"-85.81","79.99","EUREKA A","2401203","2024-12-01 09:00","2024","12","01","09:00","","-20.5","","-23.2","","79","","","","12","","34","","24.1","","100.80","","","","-34","","Blowing Snow"
"-85.81","79.99","EUREKA A","2401203","2024-12-01 10:00","2024","12","01","10:00","","-20.3","","-23.4","","77","","","","15","","33","","24.1","","100.72","","","","-33","","Blowing Snow"
"-85.81","79.99","EUREKA A","2401203","2024-12-01 11:00","2024","12","01","11:00","","-21.1","","-24.0","","78","","","","12","","40","","24.1","","100.65","","","","-36","","Blowing Snow"
"-85.81","79.99","EUREKA A","2401203","2024-12-01 12:00","2024","12","01","12:00","","-21.0","","-24.0","","77","","","","12","","40","","24.1","","100.66","","","","-35","","Blowing Snow"
"-85.81","79.99","EUREKA A","2401203","2024-12-01 13:00","2024","12","01","13:00","","-20.9","","-24.2","","75","","","","15","","37","","24.1","","100.62","","","","-35","","Blowing Snow"
"-85.81","79.99","EUREKA A","2401203","2024-12-01 14:00","2024","12","01","14:00","","-21.2","","-24.2","","77","","","","13","","49","","24.1","","100.58","","","","-37","","Blowing Snow"
"-85.81","79.99","EUREKA A","2401203","2024-12-01 15:00","2024","12","01","15:00","","-21.1","","-24.3","","76","","","","13","","47","","19.3","","100.55","","","","-37","","Snow,Blowing Snow"
"-85.81","79.99","EUREKA A","2401203","2024-12-01 16:00","2024","12","01","16:00","","-21.5","","-24.6","","76","","","","13","","36","","24.1","","100.43","","","","-36","","Snow,Blowing Snow"
"-85.81","79.99","EUREKA A","2401203","2024-12-01 17:00","2024","12","01","17:00","","-21.6","","-24.8","","76","","","","13","","34","","24.1","","100.40","","","","-35","","Snow,Blowing Snow"
"-85.81","79.99","EUREKA A","2401203","2024-12-01 18:00","2024","12","01","18:00","","-21.6","","-24.9","","75","","","","13","","35","","24.1","","100.37","","","","-36","","Snow,Blowing Snow"
"-85.81","79.99","EUREKA A","2401203","2024-12-01 19:00","2024","12","01","19:00","","-21.4","","-24.7","","75","","","","13","","44","","24.1","","100.31","","","","-37","","Snow,Blowing Snow"
"-85.81","79.99","EUREKA A","2401203","2024-12-01 20:00","2024","12","01","20:00","","-21.2","","-24.3","","77","","","","12","","39","","24.1","","100.30","","","","-36","","Snow,Blowing Snow"
"-85.81","79.99","EUREKA A","2401203","2024-12-01 21:00","2024","12","01","21:00","","-21.7","","-24.9","","76","","","","13","","39","","24.1","","100.25","","","","-36","","Snow,Blowing Snow"
"-85.81","79.99","EUREKA A","2401203","2024-12-01 22:00","2024","12","01","22:00"
"-85.81","79.99","EUREKA A","2401203","2024-12-01 23:00","2024","12","01","23:00"
"-85.81","79.99","EUREKA A","2401203","2024-12-02 00:00","2024","12","02","00:00","","-22.2","","-25.6","","75","","","","13","","35","","12.9","","100.14","","","","-36","","Blowing Snow"
"-85.81","79.99","EUREKA A","2401203","2024-12-02 01:00","2024","12","02","01:00","","-22.0","","-25.4","","75","","","","13","","35","","16.1","","100.13","","","","-36","","Blowing Snow"
"-85.81","79.99","EUREKA A","2401203","2024-12-02 02:00","2024","12","02","02:00","","-22.4","","-25.4","","77","","","","12","","28","","12.9","","100.11","","","","-35","","Blowing Snow"
"-85.81","79.99","EUREKA A","2401203","2024-12-02 03:00","2024","12","02","03:00","","-22.1","","-25.1","","77","","","","12","","33","","16.1","","100.11","","","","-36","","Blowing Snow"
"-85.81","79.99","EUREKA A","2401203","2024-12-02 04:00","2024","12","02","04:00","","-22.6","","-25.9","","75","","","","12","","23","","19.3","","100.09","","","","-35","","Blowing Snow"
"-85.81","79.99","EUREKA A","2401203","2024-12-02 05:00","2024","12","02","05:00","","-23.0","","-26.1","","76","","","","11","","27","","24.1","","100.08","","","","-36","","Blowing Snow"
"-85.81","79.99","EUREKA A","2401203","2024-12-02 06:00","2024","12","02","06:00","","-23.6","","-26.8","","76","","","","11","","25","","24.1","","100.06","","","","-36","","Blowing Snow"
"-85.81","79.99","EUREKA A","2401203","2024-12-02 07:00","2024","12","02","07:00","","-24.1","","-26.9","","79","","","","10","","13","","24.1","","100.05","","","","-33","","NA"
"-85.81","79.99","EUREKA A","2401203","2024-12-02 08:00","2024","12","02","08:00","","-25.6","","-28.4","","78","","","","11","","17","","24.1","","100.04","","","","-37","","Ice Crystals"
"-85.81","79.99","EUREKA A","2401203","2024-12-02 09:00","2024","12","02","09:00","","-26.3","","-29.2","","77","","","","3","","10","","24.1","","100.00","","","","-35","","Ice Crystals"
"-85.81","79.99","EUREKA A","2401203","2024-12-02 10:00","2024","12","02","10:00","","-27.1","","-30.1","","76","","","","10","","17","","24.1","","100.01","","","","-39","","Ice Crystals"
"-85.81","79.99","EUREKA A","2401203","2024-12-02 11:00","2024","12","02","11:00","","-27.4","","-30.4","","76","","","","9","","9","","24.1","","100.01","","","","-36","","Ice Crystals"
"-85.81","79.99","EUREKA A","2401203","2024-12-02 12:00","2024","12","02","12:00","","-27.8","","-30.9","","75","","","","7","","9","","24.1","","99.98","","","","-36","","Ice Crystals"
"-85.81","79.99","EUREKA A","2401203","2024-12-02 13:00","2024","12","02","13:00","","-28.0","","-31.1","","75","","","","2","","14","","24.1","","99.99","","","","-39","","Ice Crystals"
"-85.81","79.99","EUREKA A","2401203","2024-12-02 14:00","2024","12","02","14:00","","-28.8","","-32.0","","74","","","","7","","4","","24.1","","99.99","","","","-33","","Ice Crystals"
"-85.81","79.99","EUREKA A","2401203","2024-12-02 15:00","2024","12","02","15:00","","-28.6","","-31.9","","74","","","","4","","3","","24.1","","100.01","","","","-32","","Ice Crystals"
"-85.81","79.99","EUREKA A","2401203","2024-12-02 16:00","2024","12","02","16:00","","-28.8","","-32.0","","74","","","","2","","12","","24.1","","100.01","","","","-39","","Ice Crystals"
"-85.81","79.99","EUREKA A","2401203","2024-12-02 17:00","2024","12","02","17:00","","-29.6","","-32.8","","74","","","","2","","18","","24.1","","99.99","","","","-42","","Ice Crystals"
"-85.81","79.99","EUREKA A","2401203","2024-12-02 18:00","2024","12","02","18:00","","-29.3","","-32.5","","74","","","","1","","13","","24.1","","99.99","","","","-40","","Ice Crystals"
"-85.81","79.99","EUREKA A","2401203","2024-12-02 19:00","2024","12","02","19:00","","-29.1","","-32.4","","74","","","","35","","14","","24.1","","99.98","","","","-40","","Ice Crystals"
"-85.81","79.99","EUREKA A","2401203","2024-12-02 20:00","2024","12","02","20:00","","-29.6","","-33.0","","73","","","","30","","6","","24.1","","99.97","","","","-36","","Ice Crystals"
"-85.81","79.99","EUREKA A","2401203","2024-12-02 21:00","2024","12","02","21:00","","-30.8","","-34.2","","73","","","","10","","17","","24.1","","99.94","","","","-43","","Ice Crystals"
"-85.81","79.99","EUREKA A","2401203","2024-12-02 22:00","2024","12","02","22:00"
"-85.81","79.99","EUREKA A","2401203","2024-12-02 23:00","2024","12","02","23:00"
"-85.81","79.99","EUREKA A","2401203","2024-12-03 00:00","2024","12","03","00:00","","-32.1","","-35.6","","72","","","","5","","3","","24.1","","99.95","","","","-36","","Ice Crystals"
"-85.81","79.99","EUREKA A","2401203","2024-12-03 01:00","2024","12","03","01:00","","-30.0","","-33.4","","73","","","","11","","10","","24.1","","99.94","","","","-39","","Ice Crystals"
"-85.81","79.99","EUREKA A","2401203","2024-12-03 02:00","2024","12","03","02:00","","-31.2","","-34.6","","72","","","","9","","16","","24.1","","99.95","","","","-43","","Ice Crystals"
"-85.81","79.99","EUREKA A","2401203","2024-12-03 03:00","2024","12","03","03:00","","-31.9","","-35.4","","72","","","","10","","15","","24.1","","99.98","","","","-44","","Ice Crystals"
"-85.81","79.99","EUREKA A","2401203","2024-12-03 04:00","2024","12","03","04:00","","-33.3","","-36.8","","71","","","","6","","7","","24.1","","99.96","","","","-41","","Ice Crystals"
"-85.81","79.99","EUREKA A","2401203","2024-12-03 05:00","2024","12","03","05:00","","-32.6","","-36.1","","71","","","","6","","4","","24.1","","99.95","","","","-37","","Ice Crystals"
"-85.81","79.99","EUREKA A","2401203","2024-12-03 06:00","2024","12","03","06:00","","-31.8","","-35.3","","72","","","","9","","17","","24.1","","99.93","","","","-44","","Ice Crystals"
"-85.81","79.99","EUREKA A","2401203","2024-12-03 07:00","2024","12","03","07:00","","-33.0","","-36.6","","71","","","","9","","16","","24.1","","99.92","","","","-45","","Ice Crystals"
"-85.81","79.99","EUREKA A","2401203","2024-12-03 08:00","2024","12","03","08:00","","-30.7","","-34.2","","72","","","","11","","16","","24.1","","99.91","","","","-43","","Ice Crystals"
"-85.81","79.99","EUREKA A","2401203","2024-12-03 09:00","2024","12","03","09:00","","-32.2","","-35.8","","72","","","","6","","3","","24.1","","99.89","","","","-36","","Ice Crystals"
"-85.81","79.99","EUREKA A","2401203","2024-12-03 10:00","2024","12","03","10:00","","-33.2","","-36.8","","71","","","","","","0","","24.1","","99.87","","","","","","Ice Crystals"
"-85.81","79.99","EUREKA A","2401203","2024-12-03 11:00","2024","12","03","11:00","","-32.1","","-35.7","","71","","","","3","","10","","24.1","","99.88","","","","-42","","Ice Crystals"
"-85.81","79.99","EUREKA A","2401203","2024-12-03 12:00","2024","12","03","12:00","","-32.6","","-36.1","","71","","","","","","0","","24.1","","99.86","","","","","","Ice Crystals"
"-85.81","79.99","EUREKA A","2401203","2024-12-03 13:00","2024","12","03","13:00","","-32.4","","-35.9","","71","","","","10","","15","","24.1","","99.88","","","","-44","","Ice Crystals"
"-85.81","79.99","EUREKA A","2401203","2024-12-03 14:00","2024","12","03","14:00","","-33.1","","-36.7","","71","","","","11","","21","","24.1","","99.87","","","","-47","","Ice Crystals"
"-85.81","79.99","EUREKA A","2401203","2024-12-03 15:00","2024","12","03","15:00","","-33.8","","-37.4","","70","","","","9","","16","","24.1","","99.89","","","","-46","","Ice Crystals"
"-85.81","79.99","EUREKA A","2401203","2024-12-03 16:00","2024","12","03","16:00","","-32.3","","-35.9","","71","","","","","","0","","24.1","","99.90","","","","","","Ice Crystals"
"-85.81","79.99","EUREKA A","2401203","2024-12-03 17:00","2024","12","03","17:00","","-33.4","","-37.0","","71","","","","9","","13","","24.1","","99.90","","","","-45","","Ice Crystals"
"-85.81","79.99","EUREKA A","2401203","2024-12-03 18:00","2024","12","03","18:00","","-33.3","","-37.0","","70","","","","10","","13","","24.1","","99.91","","","","-45","","Ice Crystals"
"-85.81","79.99","EUREKA A","2401203","2024-12-03 19:00","2024","12","03","19:00","","-34.0","","-37.7","","70","","","","8","","3","","24.1","","99.93","","","","-38","","Ice Crystals"
"-85.81","79.99","EUREKA A","2401203","2024-12-03 20:00","2024","12","03","20:00","","-34.3","","-38.1","","70","","","","6","","4","","24.1","","99.93","","","","-39","","Ice Crystals"
"-85.81","79.99","EUREKA A","2401203","2024-12-03 21:00","2024","12","03","21:00","","-33.8","","-37.5","","70","","","","7","","4","","24.1","","99.93","","","","-39","","Ice Crystals"
"-85.81","79.99","EUREKA A","2401203","2024-12-03 22:00","2024","12","03","22:00"
"-85.81","79.99","EUREKA A","2401203","2024-12-03 23:00","2024","12","03","23:00"
"-85.81","79.99","EUREKA A","2401203","2024-12-04 00:00","2024","12","04","00:00","","-33.2","","-36.8","","71","","","","9","","8","","24.1","","100.01","","","","-42","","Ice Crystals"
"-85.81","79.99","EUREKA A","2401203","2024-12-04 01:00","2024","12","04","01:00","","-33.3","","-36.9","","71","","","","9","","10","","24.1","","100.05","","","","-43","","Ice Crystals"
"-85.81","79.99","EUREKA A","2401203","2024-12-04 02:00","2024","12","04","02:00","","-33.9","","-37.6","","70","","","","10","","16","","24.1","","100.09","","","","-47","","Ice Crystals"
"-85.81","79.99","EUREKA A","2401203","2024-12-04 03:00","2024","12","04","03:00","","-34.1","","-37.8","","70","","","","3","","11","","24.1","","100.11","","","","-45","","Ice Crystals"
"-85.81","79.99","EUREKA A","2401203","2024-12-04 04:00","2024","12","04","04:00","","-35.0","","-38.8","","69","","","","7","","4","","24.1","","100.17","","","","-40","","Ice Crystals"
"-85.81","79.99","EUREKA A","2401203","2024-12-04 05:00","2024","12","04","05:00","","-33.0","","-36.6","","71","","","","9","","10","","24.1","","100.18","","","","-43","","Ice Crystals"
"-85.81","79.99","EUREKA A","2401203","2024-12-04 06:00","2024","12","04","06:00","","-34.2","","-38.0","","70","","","","7","","4","","24.1","","100.21","","","","-39","","Ice Crystals"
"-85.81","79.99","EUREKA A","2401203","2024-12-04 07:00","2024","12","04","07:00","","-34.5","","-38.2","","70","","","","9","","16","","24.1","","100.21","","","","-47","","Ice Crystals"
"-85.81","79.99","EUREKA A","2401203","2024-12-04 08:00","2024","12","04","08:00","","-35.3","","-39.0","","69","","","","8","","5","","24.1","","100.25","","","","-42","","Ice Crystals"
"-85.81","79.99","EUREKA A","2401203","2024-12-04 09:00","2024","12","04","09:00","","-34.9","","-38.6","","69","","","","7","","4","","24.1","","100.26","","","","-40","","Ice Crystals"
"-85.81","79.99","EUREKA A","2401203","2024-12-04 10:00","2024","12","04","10:00","","-33.8","","-37.5","","70","","","","10","","19","","24.1","","100.28","","","","-48","","Ice Crystals"
"-85.81","79.99","EUREKA A","2401203","2024-12-04 11:00","2024","12","04","11:00","","-35.0","","-38.8","","69","","","","7","","6","","24.1","","100.27","","","","-42","","Ice Crystals"
"-85.81","79.99","EUREKA A","2401203","2024-12-04 12:00","2024","12","04","12:00","","-33.8","","-37.5","","70","","","","9","","10","","24.1","","100.31","","","","-44","","Ice Crystals"
"-85.81","79.99","EUREKA A","2401203","2024-12-04 13:00","2024","12","04","13:00","","-34.0","","-37.8","","70","","","","","","0","","24.1","","100.31","","","","","","Ice Crystals"
"-85.81","79.99","EUREKA A","2401203","2024-12-04 14:00","2024","12","04","14:00","","-34.5","","-38.2","","70","","","","7","","4","","24.1","","100.32","","","","-39","","Ice Crystals"
"-85.81","79.99","EUREKA A","2401203","2024-12-04 15:00","2024","12","04","15:00","","-34.8","","-38.6","","69","","","","12","","21","","24.1","","100.33","","","","-49","","Ice Crystals"
"-85.81","79.99","EUREKA A","2401203","2024-12-04 16:00","2024","12","04","16:00","","-33.7","","-37.4","","70","","","","10","","14","","24.1","","100.33","","","","-46","","Ice Crystals"
"-85.81","79.99","EUREKA A","2401203","2024-12-04 17:00","2024","12","04","17:00","","-32.3","","-35.9","","71","","","","10","","19","","24.1","","100.35","","","","-46","","Snow"
"-85.81","79.99","EUREKA A","2401203","2024-12-04 18:00","2024","12","04","18:00","","-31.2","","-34.8","","71","","","","9","","13","","19.3","","100.34","","","","-42","","Snow"
"-85.81","79.99","EUREKA A","2401203","2024-12-04 19:00","2024","12","04","19:00","","-30.9","","-34.5","","72","","","","9","","6","","16.1","","100.33","","","","-38","","Snow"
"-85.81","79.99","EUREKA A","2401203","2024-12-04 20:00","2024","12","04","20:00","","-31.4","","-35.0","","72","","","","11","","16","","9.7","","100.33","","","","-44","","Snow"
"-85.81","79.99","EUREKA A","2401203","2024-12-04 21:00","2024","12","04","21:00","","-30.2","","-33.7","","72","","","","","","0","","8.1","","100.30","","","","","","Snow"
"-85.81","79.99","EUREKA A","2401203","2024-12-04 22:00","2024","12","04","22:00"
"-85.81","79.99","EUREKA A","2401203","2024-12-04 23:00","2024","12","04","23:00"
"-85.81","79.99","EUREKA A","2401203","2024-12-05 00:00","2024","12","05","00:00","","-30.7","","-34.2","","72","","","","11","","8","","8.1","","100.33","","","","-39","","Snow"
"-85.81","79.99","EUREKA A","2401203","2024-12-05 01:00","2024","12","05","01:00","","-30.1","","-33.5","","73","","","","","","0","","9.7","","100.36","","","","","","Snow"
"-85.81","79.99","EUREKA A","2401203","2024-12-05 02:00","2024","12","05","02:00","","-31.2","","-34.8","","72","","","","6","","3","","16.1","","100.40","","","","-35","","Snow"
"-85.81","79.99","EUREKA A","2401203","2024-12-05 03:00","2024","12","05","03:00","","-29.9","","-33.4","","72","","","","5","","3","","16.1","","100.43","","","","-33","","Snow"
"-85.81","79.99","EUREKA A","2401203","2024-12-05 04:00","2024","12","05","04:00","","-29.9","","-33.4","","72","","","","10","","18","","24.1","","100.46","","","","-42","","Snow"
"-85.81","79.99","EUREKA A","2401203","2024-12-05 05:00","2024","12","05","05:00","","-29.4","","-32.8","","73","","","","10","","14","","24.1","","100.48","","","","-40","","Snow"
"-85.81","79.99","EUREKA A","2401203","2024-12-05 06:00","2024","12","05","06:00","","-30.5","","-34.0","","72","","","","10","","18","","24.1","","100.50","","","","-43","","Snow"
"-85.81","79.99","EUREKA A","2401203","2024-12-05 07:00","2024","12","05","07:00","","-31.8","","-35.4","","71","","","","7","","4","","24.1","","100.53","","","","-36","","Snow"
"-85.81","79.99","EUREKA A","2401203","2024-12-05 08:00","2024","12","05","08:00","","-32.4","","-36.0","","71","","","","10","","24","","24.1","","100.55","","","","-47","","Ice Crystals"
"-85.81","79.99","EUREKA A","2401203","2024-12-05 09:00","2024","12","05","09:00","","-32.7","","-36.4","","71","","","","10","","20","","24.1","","100.58","","","","-47","","Ice Crystals"
"-85.81","79.99","EUREKA A","2401203","2024-12-05 10:00","2024","12","05","10:00","","-32.9","","-36.6","","71","","","","4","","4","","24.1","","100.57","","","","-38","","Ice Crystals"
"-85.81","79.99","EUREKA A","2401203","2024-12-05 11:00","2024","12","05","11:00","","-32.7","","-36.3","","71","","","","9","","16","","24.1","","100.58","","","","-45","","Ice Crystals"
"-85.81","79.99","EUREKA A","2401203","2024-12-05 12:00","2024","12","05","12:00","","-32.7","","-36.3","","71","","","","9","","9","","24.1","","100.60","","","","-42","","Ice Crystals"
"-85.81","79.99","EUREKA A","2401203","2024-12-05 13:00","2024","12","05","13:00","","-33.7","","-37.4","","70","","","","9","","16","","24.1","","100.64","","","","-46","","Ice Crystals"
"-85.81","79.99","EUREKA A","2401203","2024-12-05 14:00","2024","12","05","14:00","","-32.6","","-36.3","","71","","","","2","","14","","24.1","","100.67","","","","-44","","Ice Crystals"
"-85.81","79.99","EUREKA A","2401203","2024-12-05 15:00","2024","12","05","15:00","","-33.4","","-37.1","","70","","","","7","","5","","24.1","","100.71","","","","-39","","Ice Crystals"
"-85.81","79.99","EUREKA A","2401203","2024-12-05 16:00","2024","12","05","16:00","","-33.9","","-37.6","","70","","","","8","","13","","24.1","","100.76","","","","-45","","Ice Crystals"
"-85.81","79.99","EUREKA A","2401203","2024-12-05 17:00","2024","12","05","17:00","","-33.5","","-37.2","","70","","","","9","","7","","24.1","","100.77","","","","-41","","Ice Crystals"
"-85.81","79.99","EUREKA A","2401203","2024-12-05 18:00","2024","12","05","18:00","","-33.8","","-37.5","","70","","","","7","","5","","24.1","","100.76","","","","-40","","Ice Crystals"
"-85.81","79.99","EUREKA A","2401203","2024-12-05 19:00","2024","12","05","19:00","","-33.3","","-37.0","","70","","","","9","","18","","24.1","","100.77","","","","-47","","Ice Crystals"
"-85.81","79.99","EUREKA A","2401203","2024-12-05 20:00","2024","12","05","20:00","","-33.3","","-37.0","","70","","","","8","","8","","24.1","","100.76","","","","-42","","Ice Crystals"
"-85.81","79.99","EUREKA A","2401203","2024-12-05 21:00","2024","12","05","21:00","","-32.8","","-36.4","","71","","","","9","","17","","24.1","","100.78","","","","-46","","Ice Crystals"
"-85.81","79.99","EUREKA A","2401203","2024-12-05 22:00","2024","12","05","22:00"
"-85.81","79.99","EUREKA A","2401203","2024-12-05 23:00","2024","12","05","23:00"
"-85.81","79.99","EUREKA A","2401203","2024-12-06 00:00","2024","12","06","00:00","","-33.0","","-36.6","","70","","","","9","","12","","24.1","","100.81","","","","-44","","Ice Crystals"
"-85.81","79.99","EUREKA A","2401203","2024-12-06 01:00","2024","12","06","01:00","","-32.9","","-36.6","","70","","","","","","0","","24.1","","100.84","","","","","","Ice Crystals"
"-85.81","79.99","EUREKA A","2401203","2024-12-06 02:00","2024","12","06","02:00","","-32.4","","-36.1","","71","","","","9","","6","","24.1","","100.85","","","","-39","","Ice Crystals"
"-85.81","79.99","EUREKA A","2401203","2024-12-06 03:00","2024","12","06","03:00","","-32.8","","-36.5","","71","","","","10","","19","","24.1","","100.88","","","","-46","","Ice Crystals"
"-85.81","79.99","EUREKA A","2401203","2024-12-06 04:00","2024","12","06","04:00","","-34.0","","-37.7","","70","","","","7","","4","","24.1","","100.91","","","","-39","","Ice Crystals"
"-85.81","79.99","EUREKA A","2401203","2024-12-06 05:00","2024","12","06","05:00","","-32.9","","-36.6","","70","","","","9","","5","","24.1","","100.90","","","","-39","","Ice Crystals"
"-85.81","79.99","EUREKA A","2401203","2024-12-06 06:00","2024","12","06","06:00","","-32.5","","-36.2","","71","","","","10","","22","","24.1","","100.91","","","","-47","","Ice Crystals"
"-85.81","79.99","EUREKA A","2401203","2024-12-06 07:00","2024","12","06","07:00","","-31.9","","-35.5","","71","","","","11","","18","","24.1","","100.92","","","","-45","","Ice Crystals"
"-85.81","79.99","EUREKA A","2401203","2024-12-06 08:00","2024","12","06","08:00","","-32.1","","-35.7","","71","","","","10","","18","","24.1","","100.92","","","","-45","","Ice Crystals"
"-85.81","79.99","EUREKA A","2401203","2024-12-06 09:00","2024","12","06","09:00","","-32.5","","-36.2","","71","","","","10","","20","","24.1","","100.93","","","","-46","","Ice Crystals"
"-85.81","79.99","EUREKA A","2401203","2024-12-06 10:00","2024","12","06","10:00","","-32.0","","-35.6","","71","","","","10","","17","","24.1","","100.93","","","","-45","","Ice Crystals"
"-85.81","79.99","EUREKA A","2401203","2024-12-06 11:00","2024","12","06","11:00","","-31.7","","-35.3","","71","","","","10","","18","","24.1","","100.93","","","","-45","","Ice Crystals"
"-85.81","79.99","EUREKA A","2401203","2024-12-06 12:00","2024","12","06","12:00","","-32.2","","-35.8","","71","","","","6","","5","","24.1","","100.97","","","","-38","","Ice Crystals"
"-85.81","79.99","EUREKA A","2401203","2024-12-06 13:00","2024","12","06","13:00","","-31.7","","-35.3","","71","","","","9","","13","","24.1","","100.98","","","","-43","","Ice Crystals"
"-85.81","79.99","EUREKA A","2401203","2024-12-06 14:00","2024","12","06","14:00","","-30.9","","-34.5","","72","","","","11","","18","","24.1","","101.00","","","","-44","","Ice Crystals"
"-85.81","79.99","EUREKA A","2401203","2024-12-06 15:00","2024","12","06","15:00","","-31.9","","-35.6","","71","","","","12","","18","","24.1","","101.02","","","","-45","","Ice Crystals"
"-85.81","79.99","EUREKA A","2401203","2024-12-06 16:00","2024","12","06","16:00","","-30.0","","-33.5","","72","","","","13","","16","","24.1","","101.06","","","","-42","","Ice Crystals"
"-85.81","79.99","EUREKA A","2401203","2024-12-06 17:00","2024","12","06","17:00","","-29.1","","-32.6","","73","","","","11","","17","","24.1","","101.05","","","","-41","","Ice Crystals"
"-85.81","79.99","EUREKA A","2401203","2024-12-06 18:00","2024","12","06","18:00","","-28.6","","-32.0","","73","","","","12","","20","","16.1","","101.04","","","","-41","","Snow"
"-85.81","79.99","EUREKA A","2401203","2024-12-06 19:00","2024","12","06","19:00","","-28.4","","-31.7","","74","","","","12","","22","","6.4","","101.06","","","","-42","","Snow"
"-85.81","79.99","EUREKA A","2401203","2024-12-06 20:00","2024","12","06","20:00","","-26.8","","-30.1","","74","","","","11","","23","","8.1","","101.07","","","","-40","","Snow"
"-85.81","79.99","EUREKA A","2401203","2024-12-06 21:00","2024","12","06","21:00","","-25.5","","-28.7","","75","","","","12","","22","","8.1","","101.05","","","","-38","","Snow"
"-85.81","79.99","EUREKA A","2401203","2024-12-06 22:00","2024","12","06","22:00"
"-85.81","79.99","EUREKA A","2401203","2024-12-06 23:00","2024","12","06","23:00"
"-85.81","79.99","EUREKA A","2401203","2024-12-07 00:00","2024","12","07","00:00","","-24.2","","-27.2","","76","","","","12","","24","","6.4","","101.03","","","","-37","","Snow"
"-85.81","79.99","EUREKA A","2401203","2024-12-07 01:00","2024","12","07","01:00","","-23.3","","-26.3","","77","","","","12","","25","","6.4","","101.03","","","","-36","","Snow,Blowing Snow"
"-85.81","79.99","EUREKA A","2401203","2024-12-07 02:00","2024","12","07","02:00","","-23.2","","-26.1","","77","","","","12","","20","","8.1","","101.01","","","","-35","","Snow,Blowing Snow"
"-85.81","79.99","EUREKA A","2401203","2024-12-07 03:00","2024","12","07","03:00","","-23.4","","-26.3","","77","","","","12","","20","","8.1","","100.98","","","","-35","","Snow,Blowing Snow"
"-85.81","79.99","EUREKA A","2401203","2024-12-07 04:00","2024","12","07","04:00","","-23.4","","-26.3","","77","","","","12","","23","","9.7","","100.94","","","","-36","","Snow"
"-85.81","79.99","EUREKA A","2401203","2024-12-07 05:00","2024","12","07","05:00","","-24.2","","-27.2","","77","","","","25","","5","","9.7","","100.90","","","","-29","","Snow"
"-85.81","79.99","EUREKA A","2401203","2024-12-07 06:00","2024","12","07","06:00","","-23.9","","-26.9","","77","","","","11","","16","","11.3","","100.87","","","","-34","","Snow"
"-85.81","79.99","EUREKA A","2401203","2024-12-07 07:00","2024","12","07","07:00","","-24.2","","-27.2","","77","","","","10","","14","","16.1","","100.82","","","","-34","","Snow"
"-85.81","79.99","EUREKA A","2401203","2024-12-07 08:00","2024","12","07","08:00","","-25.2","","-28.3","","76","","","","","","0","","16.1","","100.79","","","","","","Snow"
"-85.81","79.99","EUREKA A","2401203","2024-12-07 09:00","2024","12","07","09:00","","-25.9","","-29.0","","76","","","","3","","17","","24.1","","100.70","","","","-37","","Snow"
"-85.81","79.99","EUREKA A","2401203","2024-12-07 10:00","2024","12","07","10:00","","-26.2","","-29.3","","76","","","","6","","3","","24.1","","100.64","","","","-29","","Snow"
"-85.81","79.99","EUREKA A","2401203","2024-12-07 11:00","2024","12","07","11:00","","-26.6","","-29.8","","75","","","","9","","11","","24.1","","100.56","","","","-36","","Snow"
"-85.81","79.99","EUREKA A","2401203","2024-12-07 12:00","2024","12","07","12:00","","-27.9","","-31.1","","75","","","","6","","4","","24.1","","100.48","","","","-32","","Ice Crystals"
"-85.81","79.99","EUREKA A","2401203","2024-12-07 13:00","2024","12","07","13:00","","-27.9","","-31.1","","74","","","","3","","14","","24.1","","100.43","","","","-38","","Ice Crystals"
"-85.81","79.99","EUREKA A","2401203","2024-12-07 14:00","2024","12","07","14:00","","-27.6","","-30.8","","74","","","","36","","13","","24.1","","100.39","","","","-38","","Ice Crystals"
"-85.81","79.99","EUREKA A","2401203","2024-12-07 15:00","2024","12","07","15:00","","-28.4","","-31.7","","74","","","","2","","14","","8.1","","100.35","","","","-39","","Ice Crystals"
"-85.81","79.99","EUREKA A","2401203","2024-12-07 16:00","2024","12","07","16:00","","-29.8","","-33.2","","73","","","","2","","13","","8.1","","100.30","","","","-40","","Ice Crystals"
"-85.81","79.99","EUREKA A","2401203","2024-12-07 17:00","2024","12","07","17:00","","-28.4","","-31.8","","74","","","","36","","13","","16.1","","100.25","","","","-39","","Ice Crystals"
"-85.81","79.99","EUREKA A","2401203","2024-12-07 18:00","2024","12","07","18:00","","-29.3","","-32.7","","73","","","","1","","12","","24.1","","100.23","","","","-39","","Ice Crystals"
"-85.81","79.99","EUREKA A","2401203","2024-12-07 19:00","2024","12","07","19:00","","-30.7","","-34.2","","72","","","","3","","11","","24.1","","100.18","","","","-41","","Ice Crystals"
"-85.81","79.99","EUREKA A","2401203","2024-12-07 20:00","2024","12","07","20:00","","-31.9","","-35.5","","72","","","","2","","17","","24.1","","100.15","","","","-44","","Ice Crystals"
"-85.81","79.99","EUREKA A","2401203","2024-12-07 21:00","2024","12","07","21:00","","-30.2","","-33.6","","73","","","","1","","13","","24.1","","100.12","","","","-41","","Ice Crystals"
"-85.81","79.99","EUREKA A","2401203","2024-12-07 22:00","2024","12","07","22:00"
"-85.81","79.99","EUREKA A","2401203","2024-12-07 23:00","2024","12","07","23:00"
"-85.81","79.99","EUREKA A","2401203","2024-12-08 00:00","2024","12","08","00:00","","-32.9","","-36.5","","71","","","","9","","9","","16.1","","100.10","","","","-42","","Ice Crystals"
"-85.81","79.99","EUREKA A","2401203","2024-12-08 01:00","2024","12","08","01:00","","-33.4","","-37.0","","71","","","","7","","5","","9.7","","100.10","","","","-39","","Ice Crystals"
"-85.81","79.99","EUREKA A","2401203","2024-12-08 02:00","2024","12","08","02:00","","-31.9","","-35.5","","71","","","","10","","20","","9.7","","100.12","","","","-45","","Ice Crystals"
"-85.81","79.99","EUREKA A","2401203","2024-12-08 03:00","2024","12","08","03:00","","-33.2","","-36.8","","71","","","","7","","4","","9.7","","100.15","","","","-38","","Ice Crystals"
"-85.81","79.99","EUREKA A","2401203","2024-12-08 04:00","2024","12","08","04:00","","-32.1","","-35.7","","71","","","","10","","13","","16.1","","100.18","","","","-43","","Ice Crystals"
"-85.81","79.99","EUREKA A","2401203","2024-12-08 05:00","2024","12","08","05:00","","-32.6","","-36.2","","71","","","","10","","17","","24.1","","100.19","","","","-45","","Ice Crystals"
"-85.81","79.99","EUREKA A","2401203","2024-12-08 06:00","2024","12","08","06:00","","-33.3","","-37.0","","71","","","","9","","16","","24.1","","100.21","","","","-46","","Ice Crystals"
"-85.81","79.99","EUREKA A","2401203","2024-12-08 07:00","2024","12","08","07:00","","-32.4","","-36.0","","71","","","","8","","6","","24.1","","100.22","","","","-39","","Ice Crystals"
"-85.81","79.99","EUREKA A","2401203","2024-12-08 08:00","2024","12","08","08:00","","-33.4","","-37.1","","70","","","","9","","18","","24.1","","100.25","","","","-47","","Ice Crystals"
"-85.81","79.99","EUREKA A","2401203","2024-12-08 09:00","2024","12","08","09:00","","-34.9","","-38.7","","70","","","","5","","5","","16.1","","100.27","","","","-41","","Ice Crystals"
"-85.81","79.99","EUREKA A","2401203","2024-12-08 10:00","2024","12","08","10:00","","-33.2","","-36.9","","70","","","","7","","3","","9.7","","100.28","","","","-37","","Ice Crystals"
"-85.81","79.99","EUREKA A","2401203","2024-12-08 11:00","2024","12","08","11:00","","-33.5","","-37.1","","70","","","","10","","17","","9.7","","100.27","","","","-46","","Ice Crystals"
"-85.81","79.99","EUREKA A","2401203","2024-12-08 12:00","2024","12","08","12:00","","-33.7","","-37.4","","70","","","","10","","21","","16.1","","100.28","","","","-48","","Ice Crystals"
"-85.81","79.99","EUREKA A","2401203","2024-12-08 13:00","2024","12","08","13:00","","-34.7","","-38.4","","70","","","","2","","15","","9.7","","100.29","","","","-47","","Ice Crystals"
"-85.81","79.99","EUREKA A","2401203","2024-12-08 14:00","2024","12","08","14:00","","-32.4","","-36.0","","71","","","","9","","20","","19.3","","100.32","","","","-46","","Ice Crystals"
"-85.81","79.99","EUREKA A","2401203","2024-12-08 15:00","2024","12","08","15:00","","-34.1","","-37.8","","70","","","","9","","18","","9.7","","100.38","","","","-48","","Ice Crystals"
"-85.81","79.99","EUREKA A","2401203","2024-12-08 16:00","2024","12","08","16:00","","-34.6","","-38.3","","69","","","","3","","14","","19.3","","100.39","","","","-47","","Ice Crystals"
"-85.81","79.99","EUREKA A","2401203","2024-12-08 17:00","2024","12","08","17:00","","-33.6","","-37.3","","70","","","","11","","18","","24.1","","100.44","","","","-47","","Ice Crystals"
"-85.81","79.99","EUREKA A","2401203","2024-12-08 18:00","2024","12","08","18:00","","-34.9","","-38.6","","69","","","","9","","19","","24.1","","100.44","","","","-49","","Ice Crystals"
"-85.81","79.99","EUREKA A","2401203","2024-12-08 19:00","2024","12","08","19:00","","-35.0","","-38.8","","69","","","","6","","4","","24.1","","100.47","","","","-40","","Ice Crystals"
"-85.81","79.99","EUREKA A","2401203","2024-12-08 20:00","2024","12","08","20:00","","-35.6","","-39.4","","69","","","","8","","7","","19.3","","100.52","","","","-44","","Ice Crystals"
"-85.81","79.99","EUREKA A","2401203","2024-12-08 21:00","2024","12","08","21:00","","-34.8","","-38.6","","69","","","","7","","5","","19.3","","100.52","","","","-41","","Ice Crystals"
"-85.81","79.99","EUREKA A","2401203","2024-12-08 22:00","2024","12","08","22:00"
"-85.81","79.99","EUREKA A","2401203","2024-12-08 23:00","2024","12","08","23:00"
"-85.81","79.99","EUREKA A","2401203","2024-12-09 00:00","2024","12","09","00:00","","-32.2","","-35.9","","71","","","","9","","14","","12.9","","100.57","","","","-44","","Ice Crystals"
"-85.81","79.99","EUREKA A","2401203","2024-12-09 01:00","2024","12","09","01:00","","-33.8","","-37.5","","70","","","","5","","4","","24.1","","100.58","","","","-39","","Ice Crystals"
"-85.81","79.99","EUREKA A","2401203","2024-12-09 02:00","2024","12","09","02:00","","-33.1","","-36.8","","70","","","","5","","4","","24.1","","100.63","","","","-38","","Ice Crystals"
"-85.81","79.99","EUREKA A","2401203","2024-12-09 03:00","2024","12","09","03:00","","-33.6","","-37.3","","70","","","","2","","14","","24.1","","100.68","","","","-45","","Ice Crystals"
"-85.81","79.99","EUREKA A","2401203","2024-12-09 04:00","2024","12","09","04:00","","-33.3","","-37.0","","70","","","","11","","14","","24.1","","100.73","","","","-45","","Ice Crystals"
"-85.81","79.99","EUREKA A","2401203","2024-12-09 05:00","2024","12","09","05:00","","-33.5","","-37.3","","70","","","","","","0","","24.1","","100.78","","","","","","Ice Crystals"
"-85.81","79.99","EUREKA A","2401203","2024-12-09 06:00","2024","12","09","06:00","","-33.7","","-37.4","","70","","","","3","","9","","24.1","","100.80","","","","-43","","Ice Crystals"
"-85.81","79.99","EUREKA A","2401203","2024-12-09 07:00","2024","12","09","07:00","","-33.6","","-37.3","","70","","","","8","","4","","24.1","","100.82","","","","-38","","Ice Crystals"
"-85.81","79.99","EUREKA A","2401203","2024-12-09 08:00","2024","12","09","08:00","","-34.2","","-38.0","","70","","","","10","","18","","24.1","","100.82","","","","-48","","Ice Crystals"
"-85.81","79.99","EUREKA A","2401203","2024-12-09 09:00","2024","12","09","09:00","","-35.5","","-39.3","","69","","","","6","","5","","24.1","","100.86","","","","-42","","Ice Crystals"
"-85.81","79.99","EUREKA A","2401203","2024-12-09 10:00","2024","12","09","10:00","","-35.4","","-39.2","","69","","","","","","0","","24.1","","100.88","","","","","","Ice Crystals"
"-85.81","79.99","EUREKA A","2401203","2024-12-09 11:00","2024","12","09","11:00","","-35.5","","-39.4","","69","","","","11","","11","","24.1","","100.91","","","","-46","","Ice Crystals"
"-85.81","79.99","EUREKA A","2401203","2024-12-09 12:00","2024","12","09","12:00","","-34.6","","-38.4","","69","","","","9","","13","","24.1","","100.92","","","","-46","","Ice Crystals"
"-85.81","79.99","EUREKA A","2401203","2024-12-09 13:00","2024","12","09","13:00","","-35.4","","-39.2","","69","","","","7","","5","","24.1","","100.97","","","","-42","","Ice Crystals"
"-85.81","79.99","EUREKA A","2401203","2024-12-09 14:00","2024","12","09","14:00","","-34.8","","-38.5","","69","","","","9","","17","","16.1","","101.02","","","","-48","","Ice Crystals"
"-85.81","79.99","EUREKA A","2401203","2024-12-09 15:00","2024","12","09","15:00","","-34.9","","-38.7","","69","","","","9","","6","","16.1","","101.08","","","","-42","","Ice Crystals"
"-85.81","79.99","EUREKA A","2401203","2024-12-09 16:00","2024","12","09","16:00","","-34.6","","-38.4","","69","","","","3","","14","","24.1","","101.14","","","","-47","","Ice Crystals"
"-85.81","79.99","EUREKA A","2401203","2024-12-09 17:00","2024","12","09","17:00","","-34.3","","-38.1","","69","","","","10","","14","","24.1","","101.19","","","","-46","","Ice Crystals"
"-85.81","79.99","EUREKA A","2401203","2024-12-09 18:00","2024","12","09","18:00","","-34.6","","-38.3","","70","","","","10","","12","","24.1","","101.22","","","","-46","","Ice Crystals"
"-85.81","79.99","EUREKA A","2401203","2024-12-09 19:00","2024","12","09","19:00","","-33.6","","-37.3","","70","","","","9","","17","","24.1","","101.29","","","","-47","","Ice Crystals"
"-85.81","79.99","EUREKA A","2401203","2024-12-09 20:00","2024","12","09","20:00","","-34.1","","-37.8","","70","","","","5","","5","","24.1","","101.33","","","","-40","","Ice Crystals"
"-85.81","79.99","EUREKA A","2401203","2024-12-09 21:00","2024","12","09","21:00","","-34.9","","-38.7","","69","","","","9","","9","","24.1","","101.39","","","","-44","","Ice Crystals"
"-85.81","79.99","EUREKA A","2401203","2024-12-09 22:00","2024","12","09","22:00"
"-85.81","79.99","EUREKA A","2401203","2024-12-09 23:00","2024","12","09","23:00"
"-85.81","79.99","EUREKA A","2401203","2024-12-10 00:00","2024","12","10","00:00","","-34.8","","-38.6","","69","","","","8","","7","","24.1","","101.62","","","","-43","","Ice Crystals"
"-85.81","79.99","EUREKA A","2401203","2024-12-10 01:00","2024","12","10","01:00","","-34.7","","-38.5","","70","","","","2","","13","","24.1","","101.70","","","","-46","","Ice Crystals"
"-85.81","79.99","EUREKA A","2401203","2024-12-10 02:00","2024","12","10","02:00","","-35.6","","-39.5","","69","","","","11","","16","","24.1","","101.76","","","","-49","","Ice Crystals"
"-85.81","79.99","EUREKA A","2401203","2024-12-10 03:00","2024","12","10","03:00","","-34.1","","-37.9","","69","","","","10","","15","","24.1","","101.86","","","","-46","","Ice Crystals"
"-85.81","79.99","EUREKA A","2401203","2024-12-10 04:00","2024","12","10","04:00","","-35.8","","-39.7","","68","","","","11","","18","","24.1","","101.96","","","","-50","","Ice Crystals"
"-85.81","79.99","EUREKA A","2401203","2024-12-10 05:00","2024","12","10","05:00","","-37.4","","-41.3","","68","","","","6","","7","","24.1","","102.01","","","","-46","","Ice Crystals"
"-85.81","79.99","EUREKA A","2401203","2024-12-10 06:00","2024","12","10","06:00","","-35.7","","-39.5","","69","","","","8","","5","","24.1","","102.09","","","","-42","","Ice Crystals"
"-85.81","79.99","EUREKA A","2401203","2024-12-10 07:00","2024","12","10","07:00","","-35.6","","-39.5","","69","","","","6","","3","","24.1","","102.15","","","","-39","","Ice Crystals"
"-85.81","79.99","EUREKA A","2401203","2024-12-10 08:00","2024","12","10","08:00","","-35.1","","-39.0","","69","","","","3","","7","","24.1","","102.21","","","","-43","","Ice Crystals"
"-85.81","79.99","EUREKA A","2401203","2024-12-10 09:00","2024","12","10","09:00","","-34.8","","-38.6","","69","","","","7","","9","","24.1","","102.28","","","","-44","","Ice Crystals"
"-85.81","79.99","EUREKA A","2401203","2024-12-10 10:00","2024","12","10","10:00","","-35.9","","-39.8","","68","","","","9","","9","","24.1","","102.31","","","","-46","","Ice Crystals"
"-85.81","79.99","EUREKA A","2401203","2024-12-10 11:00","2024","12","10","11:00","","-36.5","","-40.3","","68","","","","6","","5","","24.1","","102.33","","","","-43","","Ice Crystals"
"-85.81","79.99","EUREKA A","2401203","2024-12-10 12:00","2024","12","10","12:00","","-35.0","","-38.8","","69","","","","10","","13","","24.1","","102.39","","","","-47","","Ice Crystals"
"-85.81","79.99","EUREKA A","2401203","2024-12-10 13:00","2024","12","10","13:00","","-35.8","","-39.6","","69","","","","10","","17","","24.1","","102.43","","","","-49","","Ice Crystals"
"-85.81","79.99","EUREKA A","2401203","2024-12-10 14:00","2024","12","10","14:00","","-36.6","","-40.6","","68","","","","9","","10","","24.1","","102.50","","","","-47","","Ice Crystals"
"-85.81","79.99","EUREKA A","2401203","2024-12-10 15:00","2024","12","10","15:00","","-35.0","","-38.8","","69","","","","9","","15","","24.1","","102.55","","","","-48","","Ice Crystals"
"-85.81","79.99","EUREKA A","2401203","2024-12-10 16:00","2024","12","10","16:00","","-36.6","","-40.5","","68","","","","12","","25","","24.1","","102.60","","","","-53","","Ice Crystals"
"-85.81","79.99","EUREKA A","2401203","2024-12-10 17:00","2024","12","10","17:00","","-36.4","","-40.3","","68","","","","10","","18","","24.1","","102.66","","","","-50","","Ice Crystals"
"-85.81","79.99","EUREKA A","2401203","2024-12-10 18:00","2024","12","10","18:00","","-35.3","","-39.2","","69","","","","2","","13","","24.1","","102.68","","","","-47","","Ice Crystals"
"-85.81","79.99","EUREKA A","2401203","2024-12-10 19:00","2024","12","10","19:00","","-34.3","","-38.2","","69","","","","2","","17","","24.1","","102.72","","","","-47","","Ice Crystals"
"-85.81","79.99","EUREKA A","2401203","2024-12-10 20:00","2024","12","10","20:00","","-35.8","","-39.6","","69","","","","32","","4","","24.1","","102.78","","","","-41","","Ice Crystals"
"-85.81","79.99","EUREKA A","2401203","2024-12-10 21:00","2024","12","10","21:00","","-37.7","","-41.7","","67","","","","8","","7","","24.1","","102.78","","","","-46","","Ice Crystals"
"-85.81","79.99","EUREKA A","2401203","2024-12-10 22:00","2024","12","10","22:00"
"-85.81","79.99","EUREKA A","2401203","2024-12-10 23:00","2024","12","10","23:00"
"-85.81","79.99","EUREKA A","2401203","2024-12-11 00:00","2024","12","11","00:00","","-37.4","","-41.3","","68","","","","11","","12","","24.1","","102.81","","","","-49","","Ice Crystals"
"-85.81","79.99","EUREKA A","2401203","2024-12-11 01:00","2024","12","11","01:00","","-36.9","","-40.8","","68","","","","9","","10","","24.1","","102.81","","","","-47","","Ice Crystals"
"-85.81","79.99","EUREKA A","2401203","2024-12-11 02:00","2024","12","11","02:00","","-36.8","","-40.7","","68","","","","7","","4","","24.1","","102.82","","","","-42","","Ice Crystals"
"-85.81","79.99","EUREKA A","2401203","2024-12-11 03:00","2024","12","11","03:00","","-37.2","","-41.2","","68","","","","11","","17","","24.1","","102.86","","","","-51","","Ice Crystals"
"-85.81","79.99","EUREKA A","2401203","2024-12-11 04:00","2024","12","11","04:00","","-37.8","","-41.8","","67","","","","7","","4","","24.1","","102.86","","","","-43","","Ice Crystals"
"-85.81","79.99","EUREKA A","2401203","2024-12-11 05:00","2024","12","11","05:00","","-36.6","","-40.5","","68","","","","9","","9","","24.1","","102.85","","","","-46","","Ice Crystals"
"-85.81","79.99","EUREKA A","2401203","2024-12-11 06:00","2024","12","11","06:00","","-36.8","","-40.7","","68","","","","10","","15","","24.1","","102.81","","","","-50","","Ice Crystals"
"-85.81","79.99","EUREKA A","2401203","2024-12-11 07:00","2024","12","11","07:00","","-35.6","","-39.5","","68","","","","8","","11","","24.1","","102.79","","","","-46","","Ice Crystals"
"-85.81","79.99","EUREKA A","2401203","2024-12-11 08:00","2024","12","11","08:00","","-36.3","","-40.2","","68","","","","8","","6","","24.1","","102.77","","","","-44","","Ice Crystals"
"-85.81","79.99","EUREKA A","2401203","2024-12-11 09:00","2024","12","11","09:00","","-36.4","","-40.4","","68","","","","10","","15","","24.1","","102.72","","","","-49","","Ice Crystals"
"-85.81","79.99","EUREKA A","2401203","2024-12-11 10:00","2024","12","11","10:00","","-36.5","","-40.4","","68","","","","9","","9","","24.1","","102.70","","","","-46","","Ice Crystals"
"-85.81","79.99","EUREKA A","2401203","2024-12-11 11:00","2024","12","11","11:00","","-35.5","","-39.5","","68","","","","10","","15","","24.1","","102.64","","","","-48","","Ice Crystals"
"-85.81","79.99","EUREKA A","2401203","2024-12-11 12:00","2024","12","11","12:00","","-35.7","","-39.6","","68","","","","11","","21","","24.1","","102.59","","","","-51","","Ice Crystals"
"-85.81","79.99","EUREKA A","2401203","2024-12-11 13:00","2024","12","11","13:00","","-36.0","","-39.9","","68","","","","9","","8","","24.1","","102.54","","","","-45","","Ice Crystals"
"-85.81","79.99","EUREKA A","2401203","2024-12-11 14:00","2024","12","11","14:00","","-34.8","","-38.7","","69","","","","9","","14","","24.1","","102.50","","","","-47","","Ice Crystals"
"-85.81","79.99","EUREKA A","2401203","2024-12-11 15:00","2024","12","11","15:00","","-35.0","","-38.9","","69","","","","9","","12","","24.1","","102.46","","","","-46","","Ice Crystals"
"-85.81","79.99","EUREKA A","2401203","2024-12-11 16:00","2024","12","11","16:00","","-34.4","","-38.2","","69","","","","7","","3","","24.1","","102.43","","","","-38","","Ice Crystals"
"-85.81","79.99","EUREKA A","2401203","2024-12-11 17:00","2024","12","11","17:00","","-31.8","","-35.6","","70","","","","10","","15","","24.1","","102.37","","","","-44","","Ice Crystals"
"-85.81","79.99","EUREKA A","2401203","2024-12-11 18:00","2024","12","11","18:00","","-33.8","","-37.5","","69","","","","9","","13","","24.1","","102.35","","","","-45","","Ice Crystals"
"-85.81","79.99","EUREKA A","2401203","2024-12-11 19:00","2024","12","11","19:00","","-33.2","","-36.9","","70","","","","9","","7","","24.1","","102.30","","","","-41","","Ice Crystals"
"-85.81","79.99","EUREKA A","2401203","2024-12-11 20:00","2024","12","11","20:00","","-33.2","","-36.9","","70","","","","9","","14","","24.1","","102.25","","","","-45","","Ice Crystals"
"-85.81","79.99","EUREKA A","2401203","2024-12-11 21:00","2024","12","11","21:00","","-32.7","","-36.4","","70","","","","6","","5","","24.1","","102.19","","","","-39","","Ice Crystals"
"-85.81","79.99","EUREKA A","2401203","2024-12-11 22:00","2024","12","11","22:00"
"-85.81","79.99","EUREKA A","2401203","2024-12-11 23:00","2024","12","11","23:00"
"-85.81","79.99","EUREKA A","2401203","2024-12-12 00:00","2024","12","12","00:00","","-29.8","","-33.4","","72","","","","3","","16","","24.1","","102.09","","","","-42","","Ice Crystals"
"-85.81","79.99","EUREKA A","2401203","2024-12-12 01:00","2024","12","12","01:00","","-33.2","","-37.0","","70","","","","12","","11","","24.1","","102.09","","","","-44","","Ice Crystals"
"-85.81","79.99","EUREKA A","2401203","2024-12-12 02:00","2024","12","12","02:00","","-33.6","","-37.3","","70","","","","10","","21","","24.1","","102.11","","","","-48","","Ice Crystals"
"-85.81","79.99","EUREKA A","2401203","2024-12-12 03:00","2024","12","12","03:00","","-32.5","","-36.2","","71","","","","2","","11","","24.1","","102.12","","","","-43","","Ice Crystals"
"-85.81","79.99","EUREKA A","2401203","2024-12-12 04:00","2024","12","12","04:00","","-31.2","","-34.8","","71","","","","11","","19","","24.1","","102.13","","","","-44","","Ice Crystals"
"-85.81","79.99","EUREKA A","2401203","2024-12-12 05:00","2024","12","12","05:00","","-32.9","","-36.6","","70","","","","9","","17","","24.1","","102.13","","","","-46","","Ice Crystals"
"-85.81","79.99","EUREKA A","2401203","2024-12-12 06:00","2024","12","12","06:00","","-33.4","","-37.1","","70","","","","9","","13","","24.1","","102.15","","","","-45","","Ice Crystals"
"-85.81","79.99","EUREKA A","2401203","2024-12-12 07:00","2024","12","12","07:00","","-33.9","","-37.7","","70","","","","6","","7","","24.1","","102.16","","","","-42","","Ice Crystals"
"-85.81","79.99","EUREKA A","2401203","2024-12-12 08:00","2024","12","12","08:00","","-33.5","","-37.2","","70","","","","10","","17","","24.1","","102.19","","","","-46","","Ice Crystals"
"-85.81","79.99","EUREKA A","2401203","2024-12-12 09:00","2024","12","12","09:00","","-33.2","","-36.9","","70","","","","10","","16","","24.1","","102.20","","","","-46","","Ice Crystals"
"-85.81","79.99","EUREKA A","2401203","2024-12-12 10:00","2024","12","12","10:00","","-34.1","","-37.9","","70","","","","9","","13","","24.1","","102.19","","","","-46","","Ice Crystals"
"-85.81","79.99","EUREKA A","2401203","2024-12-12 11:00","2024","12","12","11:00","","-34.7","","-38.5","","69","","","","6","","5","","24.1","","102.21","","","","-41","","Ice Crystals"
"-85.81","79.99","EUREKA A","2401203","2024-12-12 12:00","2024","12","12","12:00","","-35.5","","-39.4","","69","","","","3","","7","","24.1","","102.25","","","","-44","","Ice Crystals"
"-85.81","79.99","EUREKA A","2401203","2024-12-12 13:00","2024","12","12","13:00","","-34.2","","-38.0","","69","","","","9","","14","","24.1","","102.27","","","","-46","","Ice Crystals"
"-85.81","79.99","EUREKA A","2401203","2024-12-12 14:00","2024","12","12","14:00","","-32.4","","-36.1","","71","","","","3","","9","","24.1","","102.28","","","","-41","","Ice Crystals"
"-85.81","79.99","EUREKA A","2401203","2024-12-12 15:00","2024","12","12","15:00","","-32.3","","-36.0","","70","","","","8","","9","","24.1","","102.28","","","","-41","","Ice Crystals"
"-85.81","79.99","EUREKA A","2401203","2024-12-12 16:00","2024","12","12","16:00","","-32.7","","-36.4","","70","","","","8","","5","","24.1","","102.28","","","","-39","","Ice Crystals"
"-85.81","79.99","EUREKA A","2401203","2024-12-12 17:00","2024","12","12","17:00","","-33.7","","-37.5","","70","","","","9","","16","","24.1","","102.28","","","","-46","","Ice Crystals"
"-85.81","79.99","EUREKA A","2401203","2024-12-12 18:00","2024","12","12","18:00","","-32.3","","-36.0","","70","","","","9","","13","","24.1","","102.25","","","","-43","","Ice Crystals"
"-85.81","79.99","EUREKA A","2401203","2024-12-12 19:00","2024","12","12","19:00","","-32.7","","-36.4","","70","","","","9","","16","","24.1","","102.21","","","","-45","","Ice Crystals"
"-85.81","79.99","EUREKA A","2401203","2024-12-12 20:00","2024","12","12","20:00","","-32.3","","-36.0","","71","","","","10","","17","","24.1","","102.18","","","","-45","","Ice Crystals"
"-85.81","79.99","EUREKA A","2401203","2024-12-12 21:00","2024","12","12","21:00","","-31.6","","-35.3","","71","","","","7","","4","","24.1","","102.15","","","","-36","","Ice Crystals"
"-85.81","79.99","EUREKA A","2401203","2024-12-12 22:00","2024","12","12","22:00"
"-85.81","79.99","EUREKA A","2401203","2024-12-12 23:00","2024","12","12","23:00"
"-85.81","79.99","EUREKA A","2401203","2024-12-13 00:00","2024","12","13","00:00","","-33.3","","-37.1","","70","","","","9","","10","","24.1","","102.01","","","","-43","","Ice Crystals"
"-85.81","79.99","EUREKA A","2401203","2024-12-13 01:00","2024","12","13","01:00","","-33.0","","-36.8","","70","","","","2","","12","","24.1","","101.91","","","","-44","","Ice Crystals"
"-85.81","79.99","EUREKA A","2401203","2024-12-13 02:00","2024","12","13","02:00","","-31.4","","-35.0","","71","","","","1","","16","","24.1","","101.84","","","","-44","","Ice Crystals"
"-85.81","79.99","EUREKA A","2401203","2024-12-13 03:00","2024","12","13","03:00","","-30.1","","-33.6","","72","","","","36","","7","","24.1","","101.77","","","","-37","","Ice Crystals"
"-85.81","79.99","EUREKA A","2401203","2024-12-13 04:00","2024","12","13","04:00","","-31.8","","-35.4","","71","","","","11","","10","","24.1","","101.66","","","","-41","","Ice Crystals"
"-85.81","79.99","EUREKA A","2401203","2024-12-13 05:00","2024","12","13","05:00","","-30.1","","-33.7","","72","","","","8","","8","","24.1","","101.54","","","","-38","","Ice Crystals"
"-85.81","79.99","EUREKA A","2401203","2024-12-13 06:00","2024","12","13","06:00","","-31.0","","-34.6","","72","","","","5","","5","","24.1","","101.42","","","","-37","","Ice Crystals"
"-85.81","79.99","EUREKA A","2401203","2024-12-13 07:00","2024","12","13","07:00","","-32.9","","-36.6","","70","","","","11","","18","","24.1","","101.31","","","","-46","","Ice Crystals"
"-85.81","79.99","EUREKA A","2401203","2024-12-13 08:00","2024","12","13","08:00","","-31.1","","-34.7","","72","","","","6","","8","","24.1","","101.18","","","","-39","","Ice Crystals"
"-85.81","79.99","EUREKA A","2401203","2024-12-13 09:00","2024","12","13","09:00","","-31.6","","-35.2","","71","","","","3","","15","","24.1","","101.02","","","","-43","","Ice Crystals"
"-85.81","79.99","EUREKA A","2401203","2024-12-13 10:00","2024","12","13","10:00","","-31.9","","-35.6","","71","","","","11","","13","","16.1","","100.86","","","","-43","","Ice Crystals"
"-85.81","79.99","EUREKA A","2401203","2024-12-13 11:00","2024","12","13","11:00","","-31.6","","-35.3","","71","","","","11","","18","","16.1","","100.72","","","","-44","","Ice Crystals"
"-85.81","79.99","EUREKA A","2401203","2024-12-13 12:00","2024","12","13","12:00","","-30.5","","-34.1","","72","","","","10","","16","","16.1","","100.55","","","","-42","","Ice Crystals"
"-85.81","79.99","EUREKA A","2401203","2024-12-13 13:00","2024","12","13","13:00","","-30.2","","-33.8","","72","","","","6","","4","","9.7","","100.36","","","","-35","","Ice Crystals"
"-85.81","79.99","EUREKA A","2401203","2024-12-13 14:00","2024","12","13","14:00","","-30.2","","-33.8","","72","","","","10","","19","","8.1","","100.20","","","","-43","","Ice Crystals"
"-85.81","79.99","EUREKA A","2401203","2024-12-13 15:00","2024","12","13","15:00","","-29.9","","-33.3","","72","","","","10","","18","","8.1","","100.05","","","","-42","","Ice Crystals"
"-85.81","79.99","EUREKA A","2401203","2024-12-13 16:00","2024","12","13","16:00","","-30.4","","-33.9","","72","","","","12","","22","","2.4","","99.91","","","","-44","","Snow"
"-85.81","79.99","EUREKA A","2401203","2024-12-13 17:00","2024","12","13","17:00","","-29.8","","-33.3","","72","","","","12","","25","","2.4","","99.74","","","","-44","","Snow,Blowing Snow"
"-85.81","79.99","EUREKA A","2401203","2024-12-13 18:00","2024","12","13","18:00","","-29.3","","-32.7","","73","","","","12","","26","","3.2","","99.58","","","","-44","","Snow,Blowing Snow"
"-85.81","79.99","EUREKA A","2401203","2024-12-13 19:00","2024","12","13","19:00","","-29.4","","-32.9","","73","","","","12","","28","","3.2","","99.42","","","","-44","","Snow,Blowing Snow"
"-85.81","79.99","EUREKA A","2401203","2024-12-13 20:00","2024","12","13","20:00","","-28.8","","-32.2","","73","","","","12","","22","","2.4","","99.32","","","","-42","","Snow,Blowing Snow"
"-85.81","79.99","EUREKA A","2401203","2024-12-13 21:00","2024","12","13","21:00","","-28.5","","-31.9","","73","","","","11","","27","","2.4","","99.18","","","","-43","","Snow,Blowing Snow"
"-85.81","79.99","EUREKA A","2401203","2024-12-13 22:00","2024","12","13","22:00"
"-85.81","79.99","EUREKA A","2401203","2024-12-13 23:00","2024","12","13","23:00"
"-85.81","79.99","EUREKA A","2401203","2024-12-14 00:00","2024","12","14","00:00","","-23.6","","-26.6","","76","","","","33","","8","","4.8","","98.85","","","","-30","","Snow"
"-85.81","79.99","EUREKA A","2401203","2024-12-14 01:00","2024","12","14","01:00","","-21.5","","-24.4","","78","","","","33","","13","","3.2","","98.73","","","","-30","","Snow,Blowing Snow"
"-85.81","79.99","EUREKA A","2401203","2024-12-14 02:00","2024","12","14","02:00","","-21.5","","-24.3","","78","","","","27","","22","","2.4","","98.66","","","","-33","","Snow,Blowing Snow"
"-85.81","79.99","EUREKA A","2401203","2024-12-14 03:00","2024","12","14","03:00","","-21.6","","-24.4","","78","","","","13","","5","","3.2","","98.62","","","","-26","","Snow,Blowing Snow"
"-85.81","79.99","EUREKA A","2401203","2024-12-14 04:00","2024","12","14","04:00","","-21.1","","-23.9","","79","","","","1","","53","","2.4","","98.54","","","","-37","","Snow,Blowing Snow"
"-85.81","79.99","EUREKA A","2401203","2024-12-14 05:00","2024","12","14","05:00","","-20.2","","-22.8","","80","","","","36","","53","","2.4","","98.48","","","","-36","","Snow,Blowing Snow"
"-85.81","79.99","EUREKA A","2401203","2024-12-14 06:00","2024","12","14","06:00","","-20.0","","-22.6","","80","","","","1","","22","","2.4","","98.43","","","","-31","","Snow,Blowing Snow"
"-85.81","79.99","EUREKA A","2401203","2024-12-14 07:00","2024","12","14","07:00","","-20.8","","-23.6","","79","","","","35","","37","","0.8","","98.38","","","","-35","","Snow,Blowing Snow"
"-85.81","79.99","EUREKA A","2401203","2024-12-14 08:00","2024","12","14","08:00","","-22.7","","-25.6","","78","","","","34","","63","","0.2","","98.13","","","","-41","","Snow,Blowing Snow"
"-85.81","79.99","EUREKA A","2401203","2024-12-14 09:00","2024","12","14","09:00","","-23.6","","-26.5","","77","","","","36","","35","","0.8","","98.34","","","","-38","","Snow,Blowing Snow"
"-85.81","79.99","EUREKA A","2401203","2024-12-14 10:00","2024","12","14","10:00","","-24.4","","-27.4","","77","","","","36","","65","","0.2","","98.17","","","","-43","","Snow,Blowing Snow"
"-85.81","79.99","EUREKA A","2401203","2024-12-14 11:00","2024","12","14","11:00","","-25.1","","-28.1","","76","","","","36","","59","","0.2","","98.13","","","","-43","","Blowing Snow"
"-85.81","79.99","EUREKA A","2401203","2024-12-14 12:00","2024","12","14","12:00","","-25.8","","-28.9","","76","","","","36","","55","","1.2","","98.25","","","","-44","","Blowing Snow"
"-85.81","79.99","EUREKA A","2401203","2024-12-14 13:00","2024","12","14","13:00","","-26.1","","-29.2","","76","","","","1","","55","","0.8","","98.28","","","","-44","","Blowing Snow"
"-85.81","79.99","EUREKA A","2401203","2024-12-14 14:00","2024","12","14","14:00","","-26.9","","-30.1","","75","","","","1","","54","","1.6","","98.32","","","","-45","","Blowing Snow"
"-85.81","79.99","EUREKA A","2401203","2024-12-14 15:00","2024","12","14","15:00","","-26.8","","-30.0","","75","","","","1","","43","","2.4","","98.40","","","","-44","","Blowing Snow"
"-85.81","79.99","EUREKA A","2401203","2024-12-14 16:00","2024","12","14","16:00","","-27.4","","-30.6","","75","","","","1","","43","","11.3","","98.47","","","","-44","","Ice Crystals,Blowing Snow"
"-85.81","79.99","EUREKA A","2401203","2024-12-14 17:00","2024","12","14","17:00","","-27.5","","-30.8","","75","","","","36","","36","","11.3","","98.52","","","","-43","","Ice Crystals,Blowing Snow"
"-85.81","79.99","EUREKA A","2401203","2024-12-14 18:00","2024","12","14","18:00","","-27.1","","-30.3","","75","","","","1","","40","","16.1","","98.56","","","","-44","","Ice Crystals,Blowing Snow"
"-85.81","79.99","EUREKA A","2401203","2024-12-14 19:00","2024","12","14","19:00","","-27.4","","-30.6","","75","","","","1","","36","","24.1","","98.61","","","","-43","","Ice Crystals,Blowing Snow"
"-85.81","79.99","EUREKA A","2401203","2024-12-14 20:00","2024","12","14","20:00","","-28.5","","-31.8","","74","","","","34","","21","","24.1","","98.68","","","","-41","","Ice Crystals"
"-85.81","79.99","EUREKA A","2401203","2024-12-14 21:00","2024","12","14","21:00","","-28.8","","-32.1","","74","","","","36","","15","","24.1","","98.71","","","","-40","","Ice Crystals"
"-85.81","79.99","EUREKA A","2401203","2024-12-14 22:00","2024","12","14","22:00"
"-85.81","79.99","EUREKA A","2401203","2024-12-14 23:00","2024","12","14","23:00"
"-85.81","79.99","EUREKA A","2401203","2024-12-15 00:00","2024","12","15","00:00","","-28.8","","-32.2","","74","","","","36","","15","","24.1","","98.83","","","","-40","","Ice Crystals"
"-85.81","79.99","EUREKA A","2401203","2024-12-15 01:00","2024","12","15","01:00","","-30.7","","-34.1","","73","","","","5","","7","","24.1","","98.91","","","","-38","","Ice Crystals"
"-85.81","79.99","EUREKA A","2401203","2024-12-15 02:00","2024","12","15","02:00","","-30.4","","-33.8","","73","","","","2","","13","","24.1","","98.95","","","","-41","","Ice Crystals"
"-85.81","79.99","EUREKA A","2401203","2024-12-15 03:00","2024","12","15","03:00","","-31.0","","-34.5","","72","","","","7","","5","","24.1","","98.98","","","","-37","","Ice Crystals"
"-85.81","79.99","EUREKA A","2401203","2024-12-15 04:00","2024","12","15","04:00","","-28.7","","-32.1","","74","","","","33","","11","","24.1","","98.97","","","","-38","","Ice Crystals,Blowing Snow"
"-85.81","79.99","EUREKA A","2401203","2024-12-15 05:00","2024","12","15","05:00","","-31.2","","-34.6","","72","","","","3","","17","","24.1","","99.01","","","","-44","","Ice Crystals,Blowing Snow"
"-85.81","79.99","EUREKA A","2401203","2024-12-15 06:00","2024","12","15","06:00","","-28.8","","-32.1","","74","","","","27","","5","","24.1","","99.01","","","","-34","","Ice Crystals,Blowing Snow"
"-85.81","79.99","EUREKA A","2401203","2024-12-15 07:00","2024","12","15","07:00","","-28.6","","-32.0","","74","","","","31","","15","","24.1","","99.01","","","","-40","","Ice Crystals,Blowing Snow"
"-85.81","79.99","EUREKA A","2401203","2024-12-15 08:00","2024","12","15","08:00","","-32.3","","-35.8","","72","","","","7","","8","","24.1","","99.07","","","","-41","","Ice Crystals,Blowing Snow"
"-85.81","79.99","EUREKA A","2401203","2024-12-15 09:00","2024","12","15","09:00","","-32.3","","-35.9","","71","","","","3","","5","","24.1","","99.11","","","","-38","","Ice Crystals"
"-85.81","79.99","EUREKA A","2401203","2024-12-15 10:00","2024","12","15","10:00","","-31.9","","-35.4","","72","","","","11","","15","","24.1","","99.18","","","","-44","","Ice Crystals"
"-85.81","79.99","EUREKA A","2401203","2024-12-15 11:00","2024","12","15","11:00","","-32.5","","-36.1","","71","","","","10","","21","","24.1","","99.20","","","","-47","","Ice Crystals"
"-85.81","79.99","EUREKA A","2401203","2024-12-15 12:00","2024","12","15","12:00","","-32.5","","-36.1","","71","","","","11","","22","","24.1","","99.26","","","","-47","","Mostly Cloudy"
"-85.81","79.99","EUREKA A","2401203","2024-12-15 13:00","2024","12","15","13:00","","-32.0","","-35.6","","71","","","","10","","18","","24.1","","99.33","","","","-45","","Ice Crystals"
"-85.81","79.99","EUREKA A","2401203","2024-12-15 14:00","2024","12","15","14:00","","-31.9","","-35.5","","71","","","","10","","23","","24.1","","99.37","","","","-46","","NA"
"-85.81","79.99","EUREKA A","2401203","2024-12-15 15:00","2024","12","15","15:00","","-33.2","","-36.9","","71","","","","9","","11","","24.1","","99.41","","","","-44","","Ice Crystals"
"-85.81","79.99","EUREKA A","2401203","2024-12-15 16:00","2024","12","15","16:00","","-31.4","","-34.9","","72","","","","10","","17","","16.1","","99.41","","","","-44","","Snow"
"-85.81","79.99","EUREKA A","2401203","2024-12-15 17:00","2024","12","15","17:00","","-31.4","","-35.0","","72","","","","4","","9","","24.1","","99.44","","","","-40","","Snow"
"-85.81","79.99","EUREKA A","2401203","2024-12-15 18:00","2024","12","15","18:00","","-32.0","","-35.6","","71","","","","5","","5","","24.1","","99.45","","","","-38","","Snow"
"-85.81","79.99","EUREKA A","2401203","2024-12-15 19:00","2024","12","15","19:00","","-30.4","","-33.9","","72","","","","3","","16","","24.1","","99.49","","","","-42","","Snow"
"-85.81","79.99","EUREKA A","2401203","2024-12-15 20:00","2024","12","15","20:00","","-30.5","","-34.0","","72","","","","10","","14","","24.1","","99.53","","","","-42","","Ice Crystals"
"-85.81","79.99","EUREKA A","2401203","2024-12-15 21:00","2024","12","15","21:00","","-31.8","","-35.3","","72","","","","10","","12","","24.1","","99.60","","","","-42","","Ice Crystals"
"-85.81","79.99","EUREKA A","2401203","2024-12-15 22:00","2024","12","15","22:00"
"-85.81","79.99","EUREKA A","2401203","2024-12-15 23:00","2024","12","15","23:00"
"-85.81","79.99","EUREKA A","2401203","2024-12-16 00:00","2024","12","16","00:00","","-32.9","","-36.5","","71","","","","","","0","","24.1","","99.76","","","","","","Ice Crystals"
"-85.81","79.99","EUREKA A","2401203","2024-12-16 01:00","2024","12","16","01:00","","-33.1","","-36.7","","71","","","","9","","14","","24.1","","99.82","","","","-45","","Ice Crystals"
"-85.81","79.99","EUREKA A","2401203","2024-12-16 02:00","2024","12","16","02:00","","-33.4","","-37.1","","70","","","","10","","12","","24.1","","99.85","","","","-44","","Ice Crystals"
"-85.81","79.99","EUREKA A","2401203","2024-12-16 03:00","2024","12","16","03:00","","-34.1","","-37.8","","70","","","","8","","5","","24.1","","99.86","","","","-40","","Ice Crystals"
"-85.81","79.99","EUREKA A","2401203","2024-12-16 04:00","2024","12","16","04:00","","-33.3","","-37.0","","70","","","","9","","9","","24.1","","99.92","","","","-43","","Ice Crystals"
"-85.81","79.99","EUREKA A","2401203","2024-12-16 05:00","2024","12","16","05:00","","-34.5","","-38.2","","70","","","","9","","16","","24.1","","99.93","","","","-47","","Ice Crystals"
"-85.81","79.99","EUREKA A","2401203","2024-12-16 06:00","2024","12","16","06:00","","-33.5","","-37.2","","70","","","","7","","4","","24.1","","99.95","","","","-38","","Ice Crystals"
"-85.81","79.99","EUREKA A","2401203","2024-12-16 07:00","2024","12","16","07:00","","-34.7","","-38.5","","70","","","","8","","8","","24.1","","99.98","","","","-43","","Ice Crystals"
"-85.81","79.99","EUREKA A","2401203","2024-12-16 08:00","2024","12","16","08:00","","-34.8","","-38.6","","69","","","","8","","6","","24.1","","100.00","","","","-42","","Ice Crystals"
"-85.81","79.99","EUREKA A","2401203","2024-12-16 09:00","2024","12","16","09:00","","-34.2","","-37.9","","70","","","","5","","3","","24.1","","100.02","","","","-38","","Ice Crystals"
"-85.81","79.99","EUREKA A","2401203","2024-12-16 10:00","2024","12","16","10:00","","-34.9","","-38.7","","69","","","","10","","18","","24.1","","100.04","","","","-49","","Ice Crystals"
"-85.81","79.99","EUREKA A","2401203","2024-12-16 11:00","2024","12","16","11:00","","-34.2","","-38.0","","69","","","","11","","23","","24.1","","100.06","","","","-49","","Ice Crystals"
"-85.81","79.99","EUREKA A","2401203","2024-12-16 12:00","2024","12","16","12:00","","-35.0","","-38.7","","69","","","","7","","6","","24.1","","100.06","","","","-42","","Ice Crystals"
"-85.81","79.99","EUREKA A","2401203","2024-12-16 13:00","2024","12","16","13:00","","-32.8","","-36.4","","71","","","","9","","12","","24.1","","100.06","","","","-44","","Ice Crystals"
"-85.81","79.99","EUREKA A","2401203","2024-12-16 14:00","2024","12","16","14:00","","-33.8","","-37.5","","70","","","","11","","17","","24.1","","100.07","","","","-47","","Ice Crystals"
"-85.81","79.99","EUREKA A","2401203","2024-12-16 15:00","2024","12","16","15:00","","-34.8","","-38.6","","69","","","","11","","22","","24.1","","100.09","","","","-50","","Ice Crystals"
"-85.81","79.99","EUREKA A","2401203","2024-12-16 16:00","2024","12","16","16:00","","-36.3","","-40.1","","69","","","","7","","7","","24.1","","100.10","","","","-45","","Ice Crystals"
"-85.81","79.99","EUREKA A","2401203","2024-12-16 17:00","2024","12","16","17:00","","-34.6","","-38.4","","69","","","","10","","18","","24.1","","100.10","","","","-48","","Ice Crystals"
"-85.81","79.99","EUREKA A","2401203","2024-12-16 18:00","2024","12","16","18:00","","-34.4","","-38.2","","70","","","","6","","5","","24.1","","100.09","","","","-41","","Ice Crystals"
"-85.81","79.99","EUREKA A","2401203","2024-12-16 19:00","2024","12","16","19:00","","-35.3","","-39.1","","69","","","","10","","16","","24.1","","100.08","","","","-48","","Ice Crystals"
"-85.81","79.99","EUREKA A","2401203","2024-12-16 20:00","2024","12","16","20:00","","-36.8","","-40.7","","68","","","","6","","4","","24.1","","100.07","","","","-42","","Ice Crystals"
"-85.81","79.99","EUREKA A","2401203","2024-12-16 21:00","2024","12","16","21:00","","-36.7","","-40.5","","68","","","","10","","19","","24.1","","100.08","","","","-51","","Ice Crystals"
"-85.81","79.99","EUREKA A","2401203","2024-12-16 22:00","2024","12","16","22:00"
"-85.81","79.99","EUREKA A","2401203","2024-12-16 23:00","2024","12","16","23:00"
"-85.81","79.99","EUREKA A","2401203","2024-12-17 00:00","2024","12","17","00:00","","-35.8","","-39.7","","69","","","","10","","18","","24.1","","100.05","","","","-50","","Ice Crystals"
"-85.81","79.99","EUREKA A","2401203","2024-12-17 01:00","2024","12","17","01:00","","-36.6","","-40.5","","68","","","","9","","13","","24.1","","100.04","","","","-49","","Ice Crystals"
"-85.81","79.99","EUREKA A","2401203","2024-12-17 02:00","2024","12","17","02:00","","-35.7","","-39.5","","69","","","","11","","17","","24.1","","100.04","","","","-49","","Ice Crystals"
"-85.81","79.99","EUREKA A","2401203","2024-12-17 03:00","2024","12","17","03:00","","-36.9","","-40.8","","68","","","","6","","5","","24.1","","100.04","","","","-43","","Ice Crystals"
"-85.81","79.99","EUREKA A","2401203","2024-12-17 04:00","2024","12","17","04:00","","-36.1","","-39.9","","69","","","","9","","12","","24.1","","100.00","","","","-48","","Ice Crystals"
"-85.81","79.99","EUREKA A","2401203","2024-12-17 05:00","2024","12","17","05:00","","-35.3","","-39.1","","69","","","","2","","14","","24.1","","99.98","","","","-48","","Ice Crystals"
"-85.81","79.99","EUREKA A","2401203","2024-12-17 06:00","2024","12","17","06:00","","-36.3","","-40.1","","69","","","","6","","9","","24.1","","99.98","","","","-46","","Ice Crystals"
"-85.81","79.99","EUREKA A","2401203","2024-12-17 07:00","2024","12","17","07:00","","-36.6","","-40.5","","68","","","","8","","6","","24.1","","99.96","","","","-44","","Ice Crystals"
"-85.81","79.99","EUREKA A","2401203","2024-12-17 08:00","2024","12","17","08:00","","-35.6","","-39.5","","69","","","","3","","16","","24.1","","99.94","","","","-49","","Ice Crystals"
"-85.81","79.99","EUREKA A","2401203","2024-12-17 09:00","2024","12","17","09:00","","-35.5","","-39.4","","69","","","","7","","5","","24.1","","99.92","","","","-42","","Ice Crystals"
"-85.81","79.99","EUREKA A","2401203","2024-12-17 10:00","2024","12","17","10:00","","-36.4","","-40.3","","68","","","","3","","7","","24.1","","99.93","","","","-45","","Ice Crystals"
"-85.81","79.99","EUREKA A","2401203","2024-12-17 11:00","2024","12","17","11:00","","-34.9","","-38.7","","69","","","","3","","9","","24.1","","99.90","","","","-44","","Ice Crystals"
"-85.81","79.99","EUREKA A","2401203","2024-12-17 12:00","2024","12","17","12:00","","-36.0","","-39.9","","69","","","","9","","10","","24.1","","99.89","","","","-46","","Ice Crystals"
"-85.81","79.99","EUREKA A","2401203","2024-12-17 13:00","2024","12","17","13:00","","-36.6","","-40.5","","68","","","","8","","5","","24.1","","99.89","","","","-43","","Ice Crystals"
"-85.81","79.99","EUREKA A","2401203","2024-12-17 14:00","2024","12","17","14:00","","-37.0","","-40.9","","68","","","","7","","5","","24.1","","99.92","","","","-44","","Ice Crystals"
"-85.81","79.99","EUREKA A","2401203","2024-12-17 15:00","2024","12","17","15:00","","-36.4","","-40.3","","68","","","","7","","3","","24.1","","99.93","","","","-40","","Ice Crystals"
"-85.81","79.99","EUREKA A","2401203","2024-12-17 16:00","2024","12","17","16:00","","-36.0","","-39.9","","68","","","","10","","15","","24.1","","99.90","","","","-49","","Ice Crystals"
"-85.81","79.99","EUREKA A","2401203","2024-12-17 17:00","2024","12","17","17:00","","-35.7","","-39.5","","69","","","","10","","14","","24.1","","99.92","","","","-48","","Ice Crystals"
"-85.81","79.99","EUREKA A","2401203","2024-12-17 18:00","2024","12","17","18:00","","-37.7","","-41.6","","68","","","","10","","20","","24.1","","99.93","","","","-53","","Ice Crystals"
"-85.81","79.99","EUREKA A","2401203","2024-12-17 19:00","2024","12","17","19:00","","-37.1","","-41.0","","68","","","","6","","7","","24.1","","99.95","","","","-46","","Ice Crystals"
"-85.81","79.99","EUREKA A","2401203","2024-12-17 20:00","2024","12","17","20:00","","-37.4","","-41.3","","68","","","","7","","3","","24.1","","99.94","","","","-41","","Ice Crystals"
"-85.81","79.99","EUREKA A","2401203","2024-12-17 21:00","2024","12","17","21:00","","-37.0","","-41.0","","68","","","","15","","4","","24.1","","99.94","","","","-42","","Ice Crystals"
"-85.81","79.99","EUREKA A","2401203","2024-12-17 22:00","2024","12","17","22:00"
"-85.81","79.99","EUREKA A","2401203","2024-12-17 23:00","2024","12","17","23:00"
"-85.81","79.99","EUREKA A","2401203","2024-12-18 00:00","2024","12","18","00:00","","-36.3","","-40.2","","68","","","","9","","16","","24.1","","99.92","","","","-50","","Ice Crystals"
"-85.81","79.99","EUREKA A","2401203","2024-12-18 01:00","2024","12","18","01:00","","-36.9","","-40.8","","68","","","","10","","17","","16.1","","99.89","","","","-51","","Ice Crystals"
"-85.81","79.99","EUREKA A","2401203","2024-12-18 02:00","2024","12","18","02:00","","-36.7","","-40.6","","68","","","","5","","3","","16.1","","99.90","","","","-41","","Ice Crystals"
"-85.81","79.99","EUREKA A","2401203","2024-12-18 03:00","2024","12","18","03:00","","-35.8","","-39.7","","68","","","","","","0","","16.1","","99.90","","","","","","Ice Crystals"
"-85.81","79.99","EUREKA A","2401203","2024-12-18 04:00","2024","12","18","04:00","","-34.8","","-38.7","","69","","","","10","","17","","16.1","","99.87","","","","-48","","Ice Crystals"
"-85.81","79.99","EUREKA A","2401203","2024-12-18 05:00","2024","12","18","05:00","","-36.2","","-40.1","","68","","","","9","","7","","16.1","","99.83","","","","-44","","Ice Crystals"
"-85.81","79.99","EUREKA A","2401203","2024-12-18 06:00","2024","12","18","06:00","","-35.3","","-39.1","","69","","","","10","","12","","24.1","","99.79","","","","-47","","Ice Crystals"
"-85.81","79.99","EUREKA A","2401203","2024-12-18 07:00","2024","12","18","07:00","","-36.6","","-40.5","","68","","","","10","","18","","24.1","","99.72","","","","-51","","Ice Crystals"
"-85.81","79.99","EUREKA A","2401203","2024-12-18 08:00","2024","12","18","08:00","","-36.5","","-40.4","","68","","","","2","","17","","24.1","","99.69","","","","-50","","Ice Crystals"
"-85.81","79.99","EUREKA A","2401203","2024-12-18 09:00","2024","12","18","09:00","","-35.9","","-39.8","","68","","","","3","","5","","24.1","","99.62","","","","-42","","Ice Crystals"
"-85.81","79.99","EUREKA A","2401203","2024-12-18 10:00","2024","12","18","10:00","","-36.6","","-40.5","","68","","","","6","","5","","16.1","","99.54","","","","-43","","Ice Crystals"
"-85.81","79.99","EUREKA A","2401203","2024-12-18 11:00","2024","12","18","11:00","","-36.4","","-40.3","","68","","","","10","","16","","24.1","","99.50","","","","-50","","Ice Crystals"
"-85.81","79.99","EUREKA A","2401203","2024-12-18 12:00","2024","12","18","12:00","","-36.9","","-40.8","","68","","","","10","","18","","6.4","","99.40","","","","-51","","Ice Crystals"
"-85.81","79.99","EUREKA A","2401203","2024-12-18 13:00","2024","12","18","13:00","","-37.2","","-41.1","","68","","","","10","","17","","24.1","","99.36","","","","-51","","Ice Crystals"
"-85.81","79.99","EUREKA A","2401203","2024-12-18 14:00","2024","12","18","14:00","","-37.9","","-41.9","","67","","","","6","","4","","8.1","","99.30","","","","-43","","Ice Crystals"
"-85.81","79.99","EUREKA A","2401203","2024-12-18 15:00","2024","12","18","15:00","","-36.5","","-40.5","","68","","","","10","","21","","12.9","","99.27","","","","-52","","Ice Crystals"
"-85.81","79.99","EUREKA A","2401203","2024-12-18 16:00","2024","12","18","16:00","","-36.8","","-40.8","","68","","","","11","","23","","12.9","","99.21","","","","-53","","Ice Crystals"
"-85.81","79.99","EUREKA A","2401203","2024-12-18 17:00","2024","12","18","17:00","","-37.8","","-41.7","","67","","","","5","","5","","12.9","","99.14","","","","-44","","Ice Crystals"
"-85.81","79.99","EUREKA A","2401203","2024-12-18 18:00","2024","12","18","18:00","","-37.7","","-41.7","","67","","","","8","","9","","24.1","","99.10","","","","-48","","Ice Crystals"
"-85.81","79.99","EUREKA A","2401203","2024-12-18 19:00","2024","12","18","19:00","","-37.1","","-41.1","","67","","","","6","","5","","24.1","","99.00","","","","-44","","Ice Crystals"
"-85.81","79.99","EUREKA A","2401203","2024-12-18 20:00","2024","12","18","20:00","","-37.8","","-41.8","","67","","","","8","","5","","16.1","","98.94","","","","-44","","Ice Crystals"
"-85.81","79.99","EUREKA A","2401203","2024-12-18 21:00","2024","12","18","21:00","","-37.5","","-41.5","","67","","","","10","","18","","24.1","","98.86","","","","-52","","Ice Crystals"
"-85.81","79.99","EUREKA A","2401203","2024-12-18 22:00","2024","12","18","22:00"
"-85.81","79.99","EUREKA A","2401203","2024-12-18 23:00","2024","12","18","23:00"
"-85.81","79.99","EUREKA A","2401203","2024-12-19 00:00","2024","12","19","00:00","","-37.9","","-41.9","","67","","","","4","","6","","24.1","","98.72","","","","-46","","Ice Crystals"
"-85.81","79.99","EUREKA A","2401203","2024-12-19 01:00","2024","12","19","01:00","","-32.6","","-36.4","","70","","","","33","","10","","8.1","","98.67","","","","-42","","Ice Crystals"
"-85.81","79.99","EUREKA A","2401203","2024-12-19 02:00","2024","12","19","02:00","","-35.5","","-39.3","","69","","","","35","","4","","8.1","","98.66","","","","-41","","Ice Crystals"
"-85.81","79.99","EUREKA A","2401203","2024-12-19 03:00","2024","12","19","03:00","","-34.3","","-38.0","","70","","","","13","","15","","16.1","","98.68","","","","-47","","Ice Crystals"
"-85.81","79.99","EUREKA A","2401203","2024-12-19 04:00","2024","12","19","04:00","","-32.7","","-36.5","","70","","","","10","","15","","16.1","","98.65","","","","-45","","Ice Crystals"
"-85.81","79.99","EUREKA A","2401203","2024-12-19 05:00","2024","12","19","05:00","","-37.9","","-41.8","","68","","","","12","","25","","16.1","","98.65","","","","-55","","Ice Crystals"
"-85.81","79.99","EUREKA A","2401203","2024-12-19 06:00","2024","12","19","06:00","","-37.2","","-41.1","","68","","","","10","","21","","24.1","","98.67","","","","-53","","Ice Crystals"
"-85.81","79.99","EUREKA A","2401203","2024-12-19 07:00","2024","12","19","07:00","","-34.5","","-38.3","","69","","","","11","","18","","24.1","","98.68","","","","-48","","Ice Crystals"
"-85.81","79.99","EUREKA A","2401203","2024-12-19 08:00","2024","12","19","08:00","","-36.6","","-40.5","","68","","","","9","","11","","24.1","","98.70","","","","-48","","Ice Crystals"
"-85.81","79.99","EUREKA A","2401203","2024-12-19 09:00","2024","12","19","09:00","","-34.7","","-38.5","","69","","","","11","","17","","24.1","","98.71","","","","-48","","Ice Crystals"
"-85.81","79.99","EUREKA A","2401203","2024-12-19 10:00","2024","12","19","10:00","","-36.1","","-40.0","","68","","","","11","","16","","24.1","","98.76","","","","-49","","Ice Crystals"
"-85.81","79.99","EUREKA A","2401203","2024-12-19 11:00","2024","12","19","11:00","","-34.8","","-38.6","","69","","","","6","","5","","24.1","","98.80","","","","-41","","Ice Crystals"
"-85.81","79.99","EUREKA A","2401203","2024-12-19 12:00","2024","12","19","12:00","","-36.0","","-39.9","","68","","","","10","","13","","24.1","","98.88","","","","-48","","Ice Crystals"
"-85.81","79.99","EUREKA A","2401203","2024-12-19 13:00","2024","12","19","13:00","","-36.2","","-40.1","","68","","","","5","","10","","24.1","","98.95","","","","-47","","Ice Crystals"
"-85.81","79.99","EUREKA A","2401203","2024-12-19 14:00","2024","12","19","14:00","","-36.5","","-40.5","","68","","","","12","","26","","24.1","","99.01","","","","-53","","Ice Crystals"
"-85.81","79.99","EUREKA A","2401203","2024-12-19 15:00","2024","12","19","15:00","","-35.4","","-39.3","","69","","","","11","","26","","24.1","","99.12","","","","-52","","Ice Crystals"
"-85.81","79.99","EUREKA A","2401203","2024-12-19 16:00","2024","12","19","16:00","","-36.5","","-40.4","","68","","","","6","","5","","24.1","","99.18","","","","-43","","Ice Crystals"
"-85.81","79.99","EUREKA A","2401203","2024-12-19 17:00","2024","12","19","17:00","","-35.1","","-38.9","","69","","","","11","","18","","24.1","","99.22","","","","-49","","Ice Crystals"
"-85.81","79.99","EUREKA A","2401203","2024-12-19 18:00","2024","12","19","18:00","","-36.5","","-40.4","","68","","","","3","","16","","24.1","","99.26","","","","-50","","Ice Crystals"
"-85.81","79.99","EUREKA A","2401203","2024-12-19 19:00","2024","12","19","19:00","","-35.3","","-39.2","","69","","","","10","","19","","24.1","","99.31","","","","-49","","NA"
"-85.81","79.99","EUREKA A","2401203","2024-12-19 20:00","2024","12","19","20:00","","-35.3","","-39.2","","69","","","","8","","6","","24.1","","99.34","","","","-43","","Ice Crystals"
"-85.81","79.99","EUREKA A","2401203","2024-12-19 21:00","2024","12","19","21:00","","-35.5","","-39.4","","68","","","","5","","6","","24.1","","99.40","","","","-43","","Ice Crystals"
"-85.81","79.99","EUREKA A","2401203","2024-12-19 22:00","2024","12","19","22:00"
"-85.81","79.99","EUREKA A","2401203","2024-12-19 23:00","2024","12","19","23:00"
"-85.81","79.99","EUREKA A","2401203","2024-12-20 00:00","2024","12","20","00:00","","-35.9","","-39.8","","69","","","","7","","8","","24.1","","99.54","","","","-45","","Ice Crystals"
"-85.81","79.99","EUREKA A","2401203","2024-12-20 01:00","2024","12","20","01:00","","-34.1","","-37.9","","69","","","","3","","7","","24.1","","99.57","","","","-42","","Ice Crystals"
"-85.81","79.99","EUREKA A","2401203","2024-12-20 02:00","2024","12","20","02:00","","-35.0","","-38.8","","69","","","","7","","6","","24.1","","99.62","","","","-42","","Ice Crystals"
"-85.81","79.99","EUREKA A","2401203","2024-12-20 03:00","2024","12","20","03:00","","-35.3","","-39.2","","69","","","","7","","7","","24.1","","99.67","","","","-43","","Ice Crystals"
"-85.81","79.99","EUREKA A","2401203","2024-12-20 04:00","2024","12","20","04:00","","-35.8","","-39.6","","69","","","","9","","13","","24.1","","99.69","","","","-48","","Ice Crystals"
"-85.81","79.99","EUREKA A","2401203","2024-12-20 05:00","2024","12","20","05:00","","-35.1","","-38.9","","69","","","","10","","19","","24.1","","99.71","","","","-49","","Ice Crystals"
"-85.81","79.99","EUREKA A","2401203","2024-12-20 06:00","2024","12","20","06:00","","-35.1","","-39.0","","69","","","","9","","19","","24.1","","99.71","","","","-49","","Ice Crystals"
"-85.81","79.99","EUREKA A","2401203","2024-12-20 07:00","2024","12","20","07:00","","-35.2","","-39.0","","69","","","","7","","3","","24.1","","99.75","","","","-39","","Ice Crystals"
"-85.81","79.99","EUREKA A","2401203","2024-12-20 08:00","2024","12","20","08:00","","-34.6","","-38.5","","69","","","","11","","10","","24.1","","99.77","","","","-45","","Ice Crystals"
"-85.81","79.99","EUREKA A","2401203","2024-12-20 09:00","2024","12","20","09:00","","-34.0","","-37.8","","70","","","","7","","3","","24.1","","99.77","","","","-38","","Ice Crystals"
"-85.81","79.99","EUREKA A","2401203","2024-12-20 10:00","2024","12","20","10:00","","-35.4","","-39.3","","69","","","","6","","4","","24.1","","99.80","","","","-40","","Ice Crystals"
"-85.81","79.99","EUREKA A","2401203","2024-12-20 11:00","2024","12","20","11:00","","-34.8","","-38.6","","69","","","","4","","4","","24.1","","99.81","","","","-40","","Ice Crystals"
"-85.81","79.99","EUREKA A","2401203","2024-12-20 12:00","2024","12","20","12:00","","-34.7","","-38.5","","69","","","","10","","13","","24.1","","99.79","","","","-46","","Ice Crystals"
"-85.81","79.99","EUREKA A","2401203","2024-12-20 13:00","2024","12","20","13:00","","-34.8","","-38.6","","69","","","","7","","5","","24.1","","99.81","","","","-41","","Ice Crystals"
"-85.81","79.99","EUREKA A","2401203","2024-12-20 14:00","2024","12","20","14:00","","-34.7","","-38.5","","69","","","","14","","5","","24.1","","99.84","","","","-41","","Ice Crystals"
"-85.81","79.99","EUREKA A","2401203","2024-12-20 15:00","2024","12","20","15:00","","-34.9","","-38.8","","69","","","","9","","10","","24.1","","99.83","","","","-45","","Ice Crystals"
"-85.81","79.99","EUREKA A","2401203","2024-12-20 16:00","2024","12","20","16:00","","-35.1","","-38.9","","69","","","","9","","7","","24.1","","99.83","","","","-43","","Ice Crystals"
"-85.81","79.99","EUREKA A","2401203","2024-12-20 17:00","2024","12","20","17:00","","-34.8","","-38.6","","69","","","","8","","4","","24.1","","99.82","","","","-40","","Ice Crystals"
"-85.81","79.99","EUREKA A","2401203","2024-12-20 18:00","2024","12","20","18:00","","-35.1","","-38.9","","69","","","","10","","15","","24.1","","99.83","","","","-48","","Ice Crystals"
"-85.81","79.99","EUREKA A","2401203","2024-12-20 19:00","2024","12","20","19:00","","-34.9","","-38.8","","69","","","","","","0","","24.1","","99.80","","","","","","Ice Crystals"
"-85.81","79.99","EUREKA A","2401203","2024-12-20 20:00","2024","12","20","20:00","","-35.5","","-39.4","","69","","","","10","","15","","24.1","","99.78","","","","-48","","Ice Crystals"
"-85.81","79.99","EUREKA A","2401203","2024-12-20 21:00","2024","12","20","21:00","","-36.2","","-40.1","","68","","","","11","","14","","24.1","","99.78","","","","-49","","Ice Crystals"
"-85.81","79.99","EUREKA A","2401203","2024-12-20 22:00","2024","12","20","22:00"
"-85.81","79.99","EUREKA A","2401203","2024-12-20 23:00","2024","12","20","23:00"
"-85.81","79.99","EUREKA A","2401203","2024-12-21 00:00","2024","12","21","00:00","","-36.9","","-40.9","","68","","","","7","","7","","24.1","","99.74","","","","-45","","Ice Crystals"
"-85.81","79.99","EUREKA A","2401203","2024-12-21 01:00","2024","12","21","01:00","","-35.9","","-39.9","","68","","","","6","","6","","24.1","","99.72","","","","-43","","Ice Crystals"
"-85.81","79.99","EUREKA A","2401203","2024-12-21 02:00","2024","12","21","02:00","","-34.6","","-38.5","","69","","","","11","","30","","24.1","","99.75","","","","-52","","Ice Crystals"
"-85.81","79.99","EUREKA A","2401203","2024-12-21 03:00","2024","12","21","03:00","","-34.6","","-38.5","","69","","","","12","","32","","16.1","","99.77","","","","-52","","Ice Crystals"
"-85.81","79.99","EUREKA A","2401203","2024-12-21 04:00","2024","12","21","04:00","","-34.5","","-38.4","","69","","","","12","","32","","16.1","","99.76","","","","-52","","Ice Crystals"
"-85.81","79.99","EUREKA A","2401203","2024-12-21 05:00","2024","12","21","05:00","","-35.3","","-39.1","","69","","","","11","","28","","16.1","","99.79","","","","-52","","Ice Crystals"
"-85.81","79.99","EUREKA A","2401203","2024-12-21 06:00","2024","12","21","06:00","","-35.1","","-39.0","","69","","","","11","","25","","8.1","","99.79","","","","-51","","Ice Crystals"
"-85.81","79.99","EUREKA A","2401203","2024-12-21 07:00","2024","12","21","07:00","","-35.3","","-39.1","","69","","","","11","","27","","8.1","","99.78","","","","-52","","Ice Crystals"
"-85.81","79.99","EUREKA A","2401203","2024-12-21 08:00","2024","12","21","08:00","","-36.4","","-40.3","","68","","","","12","","24","","8.1","","99.78","","","","-52","","Ice Crystals"
"-85.81","79.99","EUREKA A","2401203","2024-12-21 09:00","2024","12","21","09:00","","-34.8","","-38.6","","69","","","","11","","19","","16.1","","99.80","","","","-49","","Ice Crystals"
"-85.81","79.99","EUREKA A","2401203","2024-12-21 10:00","2024","12","21","10:00","","-33.6","","-37.4","","70","","","","12","","23","","8.1","","99.81","","","","-49","","Ice Crystals"
"-85.81","79.99","EUREKA A","2401203","2024-12-21 11:00","2024","12","21","11:00","","-32.6","","-36.3","","70","","","","11","","20","","8.1","","99.83","","","","-46","","Ice Crystals"
"-85.81","79.99","EUREKA A","2401203","2024-12-21 12:00","2024","12","21","12:00","","-33.2","","-37.0","","70","","","","1","","7","","16.1","","99.86","","","","-41","","Ice Crystals"
"-85.81","79.99","EUREKA A","2401203","2024-12-21 13:00","2024","12","21","13:00","","-34.0","","-37.7","","70","","","","10","","20","","24.1","","99.90","","","","-48","","Ice Crystals"
"-85.81","79.99","EUREKA A","2401203","2024-12-21 14:00","2024","12","21","14:00","","-33.2","","-36.9","","70","","","","12","","19","","16.1","","99.93","","","","-47","","Ice Crystals"
"-85.81","79.99","EUREKA A","2401203","2024-12-21 15:00","2024","12","21","15:00","","-34.9","","-38.7","","69","","","","11","","13","","24.1","","99.95","","","","-47","","Ice Crystals"
"-85.81","79.99","EUREKA A","2401203","2024-12-21 16:00","2024","12","21","16:00","","-35.6","","-39.5","","69","","","","11","","19","","24.1","","100.00","","","","-50","","Ice Crystals"
"-85.81","79.99","EUREKA A","2401203","2024-12-21 17:00","2024","12","21","17:00","","-33.0","","-36.7","","70","","","","12","","22","","24.1","","100.01","","","","-47","","Ice Crystals"
"-85.81","79.99","EUREKA A","2401203","2024-12-21 18:00","2024","12","21","18:00","","-34.9","","-38.8","","69","","","","12","","11","","24.1","","100.03","","","","-46","","Ice Crystals"
"-85.81","79.99","EUREKA A","2401203","2024-12-21 19:00","2024","12","21","19:00","","-33.9","","-37.7","","69","","","","11","","16","","24.1","","100.04","","","","-47","","Ice Crystals"
"-85.81","79.99","EUREKA A","2401203","2024-12-21 20:00","2024","12","21","20:00","","-33.8","","-37.6","","70","","","","10","","17","","24.1","","100.07","","","","-47","","Ice Crystals"
"-85.81","79.99","EUREKA A","2401203","2024-12-21 21:00","2024","12","21","21:00","","-33.4","","-37.2","","70","","","","12","","16","","24.1","","100.10","","","","-46","","Ice Crystals"
"-85.81","79.99","EUREKA A","2401203","2024-12-21 22:00","2024","12","21","22:00"
"-85.81","79.99","EUREKA A","2401203","2024-12-21 23:00","2024","12","21","23:00"
"-85.81","79.99","EUREKA A","2401203","2024-12-22 00:00","2024","12","22","00:00","","-33.2","","-37.0","","70","","","","12","","14","","24.1","","100.15","","","","-45","","Snow"
"-85.81","79.99","EUREKA A","2401203","2024-12-22 01:00","2024","12","22","01:00","","-34.1","","-37.9","","69","","","","12","","14","","24.1","","100.16","","","","-46","","Snow"
"-85.81","79.99","EUREKA A","2401203","2024-12-22 02:00","2024","12","22","02:00","","-32.3","","-36.0","","71","","","","12","","15","","16.1","","100.18","","","","-44","","Snow"
"-85.81","79.99","EUREKA A","2401203","2024-12-22 03:00","2024","12","22","03:00","","-33.0","","-36.8","","70","","","","5","","3","","24.1","","100.18","","","","-37","","Snow"
"-85.81","79.99","EUREKA A","2401203","2024-12-22 04:00","2024","12","22","04:00","","-31.5","","-35.1","","71","","","","8","","5","","16.1","","100.17","","","","-37","","Snow"
"-85.81","79.99","EUREKA A","2401203","2024-12-22 05:00","2024","12","22","05:00","","-31.8","","-35.4","","71","","","","12","","19","","12.9","","100.17","","","","-45","","Snow"
"-85.81","79.99","EUREKA A","2401203","2024-12-22 06:00","2024","12","22","06:00","","-29.9","","-33.5","","72","","","","12","","25","","16.1","","100.14","","","","-44","","Snow"
"-85.81","79.99","EUREKA A","2401203","2024-12-22 07:00","2024","12","22","07:00","","-29.3","","-32.8","","73","","","","12","","26","","8.1","","100.11","","","","-44","","Snow"
"-85.81","79.99","EUREKA A","2401203","2024-12-22 08:00","2024","12","22","08:00","","-27.2","","-30.5","","74","","","","12","","35","","8.1","","100.08","","","","-43","","Snow"
"-85.81","79.99","EUREKA A","2401203","2024-12-22 09:00","2024","12","22","09:00","","-27.2","","-30.5","","74","","","","12","","34","","16.1","","100.06","","","","-43","","Snow"
"-85.81","79.99","EUREKA A","2401203","2024-12-22 10:00","2024","12","22","10:00","","-26.8","","-30.1","","74","","","","13","","35","","16.1","","100.02","","","","-42","","Snow,Blowing Snow"
"-85.81","79.99","EUREKA A","2401203","2024-12-22 11:00","2024","12","22","11:00","","-26.6","","-29.9","","74","","","","12","","34","","16.1","","99.95","","","","-42","","Snow,Blowing Snow"
"-85.81","79.99","EUREKA A","2401203","2024-12-22 12:00","2024","12","22","12:00","","-26.4","","-29.6","","75","","","","12","","36","","24.1","","99.90","","","","-42","","Snow,Blowing Snow"
"-85.81","79.99","EUREKA A","2401203","2024-12-22 13:00","2024","12","22","13:00","","-25.7","","-28.9","","75","","","","13","","42","","8.1","","99.86","","","","-42","","Snow,Blowing Snow"
"-85.81","79.99","EUREKA A","2401203","2024-12-22 14:00","2024","12","22","14:00","","-25.7","","-28.9","","75","","","","12","","33","","8.1","","99.82","","","","-41","","Snow,Blowing Snow"
"-85.81","79.99","EUREKA A","2401203","2024-12-22 15:00","2024","12","22","15:00","","-26.0","","-29.2","","75","","","","13","","32","","8.1","","99.78","","","","-41","","Snow,Blowing Snow"
"-85.81","79.99","EUREKA A","2401203","2024-12-22 16:00","2024","12","22","16:00","","-26.2","","-29.4","","75","","","","12","","28","","12.9","","99.71","","","","-40","","Snow,Blowing Snow"
"-85.81","79.99","EUREKA A","2401203","2024-12-22 17:00","2024","12","22","17:00","","-25.9","","-29.1","","75","","","","12","","32","","8.1","","99.62","","","","-41","","Snow,Blowing Snow"
"-85.81","79.99","EUREKA A","2401203","2024-12-22 18:00","2024","12","22","18:00","","-26.3","","-29.5","","75","","","","12","","28","","8.1","","99.56","","","","-40","","Snow,Blowing Snow"
"-85.81","79.99","EUREKA A","2401203","2024-12-22 19:00","2024","12","22","19:00","","-26.2","","-29.4","","75","","","","12","","23","","12.9","","99.48","","","","-39","","Snow"
"-85.81","79.99","EUREKA A","2401203","2024-12-22 20:00","2024","12","22","20:00","","-27.1","","-30.3","","75","","","","11","","19","","24.1","","99.40","","","","-39","","Ice Crystals"
"-85.81","79.99","EUREKA A","2401203","2024-12-22 21:00","2024","12","22","21:00","","-26.9","","-30.1","","75","","","","12","","16","","24.1","","99.31","","","","-38","","Ice Crystals"
"-85.81","79.99","EUREKA A","2401203","2024-12-22 22:00","2024","12","22","22:00"
"-85.81","79.99","EUREKA A","2401203","2024-12-22 23:00","2024","12","22","23:00"
"-85.81","79.99","EUREKA A","2401203","2024-12-23 00:00","2024","12","23","00:00","","-26.2","","-29.4","","75","","","","9","","8","","6.4","","99.10","","","","-34","","Snow"
"-85.81","79.99","EUREKA A","2401203","2024-12-23 01:00","2024","12","23","01:00","","-26.4","","-29.6","","75","","","","3","","9","","4.8","","99.02","","","","-34","","Snow"
"-85.81","79.99","EUREKA A","2401203","2024-12-23 02:00","2024","12","23","02:00","","-26.3","","-29.5","","75","","","","7","","7","","6.4","","98.95","","","","-33","","Snow"
"-85.81","79.99","EUREKA A","2401203","2024-12-23 03:00","2024","12","23","03:00","","-26.1","","-29.3","","75","","","","7","","5","","8.1","","98.90","","","","-31","","Snow"
"-85.81","79.99","EUREKA A","2401203","2024-12-23 04:00","2024","12","23","04:00","","-25.8","","-28.9","","76","","","","","","0","","6.4","","98.86","","","","","","Snow"
"-85.81","79.99","EUREKA A","2401203","2024-12-23 05:00","2024","12","23","05:00","","-26.6","","-29.7","","75","","","","4","","3","","8.1","","98.82","","","","-30","","Snow"
"-85.81","79.99","EUREKA A","2401203","2024-12-23 06:00","2024","12","23","06:00","","-26.9","","-30.2","","75","","","","10","","16","","12.9","","98.78","","","","-38","","Snow"
"-85.81","79.99","EUREKA A","2401203","2024-12-23 07:00","2024","12","23","07:00","","-27.3","","-30.5","","75","","","","11","","18","","24.1","","98.71","","","","-39","","Snow"
"-85.81","79.99","EUREKA A","2401203","2024-12-23 08:00","2024","12","23","08:00","","-29.2","","-32.5","","74","","","","10","","19","","24.1","","98.68","","","","-42","","Snow"
"-85.81","79.99","EUREKA A","2401203","2024-12-23 09:00","2024","12","23","09:00","","-29.9","","-33.4","","73","","","","12","","21","","24.1","","98.65","","","","-43","","Ice Crystals"
"-85.81","79.99","EUREKA A","2401203","2024-12-23 10:00","2024","12","23","10:00","","-31.3","","-34.8","","72","","","","7","","4","","24.1","","98.63","","","","-36","","Ice Crystals"
"-85.81","79.99","EUREKA A","2401203","2024-12-23 11:00","2024","12","23","11:00","","-30.8","","-34.2","","72","","","","9","","12","","24.1","","98.61","","","","-41","","Ice Crystals"
"-85.81","79.99","EUREKA A","2401203","2024-12-23 12:00","2024","12","23","12:00","","-30.9","","-34.4","","72","","","","8","","6","","24.1","","98.64","","","","-38","","Ice Crystals"
"-85.81","79.99","EUREKA A","2401203","2024-12-23 13:00","2024","12","23","13:00","","-32.1","","-35.7","","71","","","","10","","16","","16.1","","98.64","","","","-44","","Snow"
"-85.81","79.99","EUREKA A","2401203","2024-12-23 14:00","2024","12","23","14:00","","-30.4","","-33.8","","72","","","","9","","14","","24.1","","98.68","","","","-42","","Snow"
"-85.81","79.99","EUREKA A","2401203","2024-12-23 15:00","2024","12","23","15:00","","-33.2","","-36.9","","71","","","","10","","19","","24.1","","98.71","","","","-47","","Ice Crystals"
"-85.81","79.99","EUREKA A","2401203","2024-12-23 16:00","2024","12","23","16:00","","-33.3","","-36.9","","70","","","","7","","4","","24.1","","98.74","","","","-38","","Ice Crystals"
"-85.81","79.99","EUREKA A","2401203","2024-12-23 17:00","2024","12","23","17:00","","-32.4","","-36.1","","71","","","","9","","13","","24.1","","98.78","","","","-44","","Ice Crystals"
"-85.81","79.99","EUREKA A","2401203","2024-12-23 18:00","2024","12","23","18:00","","-32.7","","-36.3","","71","","","","8","","4","","24.1","","98.79","","","","-37","","Ice Crystals"
"-85.81","79.99","EUREKA A","2401203","2024-12-23 19:00","2024","12","23","19:00","","-32.8","","-36.4","","71","","","","6","","4","","24.1","","98.82","","","","-38","","Ice Crystals"
"-85.81","79.99","EUREKA A","2401203","2024-12-23 20:00","2024","12","23","20:00","","-33.6","","-37.3","","70","","","","7","","3","","24.1","","98.85","","","","-37","","Ice Crystals"
"-85.81","79.99","EUREKA A","2401203","2024-12-23 21:00","2024","12","23","21:00","","-34.0","","-37.7","","70","","","","8","","8","","24.1","","98.86","","","","-43","","Ice Crystals"
"-85.81","79.99","EUREKA A","2401203","2024-12-23 22:00","2024","12","23","22:00"
"-85.81","79.99","EUREKA A","2401203","2024-12-23 23:00","2024","12","23","23:00"
"-85.81","79.99","EUREKA A","2401203","2024-12-24 00:00","2024","12","24","00:00","","-34.0","","-37.6","","70","","","","2","","12","","24.1","","98.92","","","","-45","","Ice Crystals"
"-85.81","79.99","EUREKA A","2401203","2024-12-24 01:00","2024","12","24","01:00","","-34.9","","-38.6","","70","","","","8","","5","","24.1","","98.97","","","","-41","","Ice Crystals"
"-85.81","79.99","EUREKA A","2401203","2024-12-24 02:00","2024","12","24","02:00","","-34.4","","-38.2","","70","","","","2","","7","","24.1","","99.03","","","","-42","","Ice Crystals"
"-85.81","79.99","EUREKA A","2401203","2024-12-24 03:00","2024","12","24","03:00","","-33.3","","-37.0","","70","","","","1","","7","","24.1","","99.09","","","","-41","","Ice Crystals"
"-85.81","79.99","EUREKA A","2401203","2024-12-24 04:00","2024","12","24","04:00","","-34.5","","-38.3","","70","","","","7","","6","","24.1","","99.13","","","","-42","","Ice Crystals"
"-85.81","79.99","EUREKA A","2401203","2024-12-24 05:00","2024","12","24","05:00","","-34.8","","-38.5","","69","","","","3","","13","","24.1","","99.14","","","","-46","","Ice Crystals"
"-85.81","79.99","EUREKA A","2401203","2024-12-24 06:00","2024","12","24","06:00","","-35.2","","-39.0","","69","","","","10","","14","","24.1","","99.18","","","","-47","","Ice Crystals"
"-85.81","79.99","EUREKA A","2401203","2024-12-24 07:00","2024","12","24","07:00","","-35.5","","-39.3","","69","","","","8","","5","","24.1","","99.17","","","","-42","","Ice Crystals"
"-85.81","79.99","EUREKA A","2401203","2024-12-24 08:00","2024","12","24","08:00","","-33.9","","-37.6","","70","","","","22","","5","","24.1","","99.20","","","","-40","","Ice Crystals"
"-85.81","79.99","EUREKA A","2401203","2024-12-24 09:00","2024","12","24","09:00","","-33.3","","-37.0","","70","","","","11","","16","","24.1","","99.21","","","","-46","","Ice Crystals"
"-85.81","79.99","EUREKA A","2401203","2024-12-24 10:00","2024","12","24","10:00","","-35.0","","-38.7","","69","","","","8","","7","","24.1","","99.20","","","","-43","","Ice Crystals"
"-85.81","79.99","EUREKA A","2401203","2024-12-24 11:00","2024","12","24","11:00","","-35.7","","-39.5","","69","","","","7","","7","","24.1","","99.24","","","","-44","","Ice Crystals"
"-85.81","79.99","EUREKA A","2401203","2024-12-24 12:00","2024","12","24","12:00","","-33.2","","-36.9","","70","","","","10","","16","","24.1","","99.29","","","","-46","","Ice Crystals"
"-85.81","79.99","EUREKA A","2401203","2024-12-24 13:00","2024","12","24","13:00","","-34.6","","-38.3","","69","","","","8","","8","","24.1","","99.33","","","","-43","","Ice Crystals"
"-85.81","79.99","EUREKA A","2401203","2024-12-24 14:00","2024","12","24","14:00","","-35.4","","-39.2","","69","","","","6","","5","","24.1","","99.37","","","","-42","","Ice Crystals"
"-85.81","79.99","EUREKA A","2401203","2024-12-24 15:00","2024","12","24","15:00","","-33.8","","-37.5","","70","","","","7","","5","","24.1","","99.43","","","","-40","","Ice Crystals"
"-85.81","79.99","EUREKA A","2401203","2024-12-24 16:00","2024","12","24","16:00","","-32.9","","-36.6","","70","","","","10","","19","","24.1","","99.45","","","","-46","","Ice Crystals"
"-85.81","79.99","EUREKA A","2401203","2024-12-24 17:00","2024","12","24","17:00","","-33.8","","-37.5","","70","","","","9","","13","","24.1","","99.51","","","","-45","","Ice Crystals"
"-85.81","79.99","EUREKA A","2401203","2024-12-24 18:00","2024","12","24","18:00","","-33.9","","-37.7","","70","","","","3","","8","","24.1","","99.54","","","","-43","","Ice Crystals"
"-85.81","79.99","EUREKA A","2401203","2024-12-24 19:00","2024","12","24","19:00","","-35.6","","-39.4","","69","","","","6","","5","","24.1","","99.56","","","","-42","","Ice Crystals"
"-85.81","79.99","EUREKA A","2401203","2024-12-24 20:00","2024","12","24","20:00","","-34.5","","-38.3","","70","","","","9","","10","","24.1","","99.59","","","","-45","","Ice Crystals"
"-85.81","79.99","EUREKA A","2401203","2024-12-24 21:00","2024","12","24","21:00","","-34.4","","-38.2","","70","","","","7","","5","","24.1","","99.62","","","","-41","","Ice Crystals"
"-85.81","79.99","EUREKA A","2401203","2024-12-24 22:00","2024","12","24","22:00"
"-85.81","79.99","EUREKA A","2401203","2024-12-24 23:00","2024","12","24","23:00"
"-85.81","79.99","EUREKA A","2401203","2024-12-25 00:00","2024","12","25","00:00","","-35.3","","-39.1","","69","","","","9","","14","","24.1","","99.75","","","","-48","","Ice Crystals"
"-85.81","79.99","EUREKA A","2401203","2024-12-25 01:00","2024","12","25","01:00","","-34.3","","-38.1","","69","","","","10","","17","","24.1","","99.80","","","","-47","","Ice Crystals"
"-85.81","79.99","EUREKA A","2401203","2024-12-25 02:00","2024","12","25","02:00","","-34.2","","-38.0","","69","","","","","","0","","24.1","","99.85","","","","","","Ice Crystals"
"-85.81","79.99","EUREKA A","2401203","2024-12-25 03:00","2024","12","25","03:00","","-34.0","","-37.8","","70","","","","9","","14","","24.1","","99.93","","","","-46","","Ice Crystals"
"-85.81","79.99","EUREKA A","2401203","2024-12-25 04:00","2024","12","25","04:00","","-35.0","","-38.9","","69","","","","12","","26","","24.1","","100.01","","","","-51","","Ice Crystals"
"-85.81","79.99","EUREKA A","2401203","2024-12-25 05:00","2024","12","25","05:00","","-34.6","","-38.4","","69","","","","10","","23","","24.1","","100.04","","","","-50","","Ice Crystals"
"-85.81","79.99","EUREKA A","2401203","2024-12-25 06:00","2024","12","25","06:00","","-35.4","","-39.2","","69","","","","10","","25","","24.1","","100.06","","","","-51","","Ice Crystals"
"-85.81","79.99","EUREKA A","2401203","2024-12-25 07:00","2024","12","25","07:00","","-35.1","","-38.9","","69","","","","10","","25","","24.1","","100.06","","","","-51","","Ice Crystals"
"-85.81","79.99","EUREKA A","2401203","2024-12-25 08:00","2024","12","25","08:00","","-36.0","","-39.9","","69","","","","12","","26","","16.1","","100.11","","","","-52","","Ice Crystals"
"-85.81","79.99","EUREKA A","2401203","2024-12-25 09:00","2024","12","25","09:00","","-35.8","","-39.6","","69","","","","12","","27","","12.9","","100.12","","","","-52","","Ice Crystals"
"-85.81","79.99","EUREKA A","2401203","2024-12-25 10:00","2024","12","25","10:00","","-35.7","","-39.6","","69","","","","8","","9","","24.1","","100.13","","","","-45","","Ice Crystals"
"-85.81","79.99","EUREKA A","2401203","2024-12-25 11:00","2024","12","25","11:00","","-36.4","","-40.3","","68","","","","7","","8","","24.1","","100.14","","","","-45","","Ice Crystals"
"-85.81","79.99","EUREKA A","2401203","2024-12-25 12:00","2024","12","25","12:00","","-36.2","","-40.1","","68","","","","9","","14","","24.1","","100.17","","","","-49","","Ice Crystals"
"-85.81","79.99","EUREKA A","2401203","2024-12-25 13:00","2024","12","25","13:00","","-36.2","","-40.0","","68","","","","9","","14","","16.1","","100.22","","","","-49","","Ice Crystals"
"-85.81","79.99","EUREKA A","2401203","2024-12-25 14:00","2024","12","25","14:00","","-36.1","","-40.0","","68","","","","9","","17","","24.1","","100.25","","","","-50","","Ice Crystals"
"-85.81","79.99","EUREKA A","2401203","2024-12-25 15:00","2024","12","25","15:00","","-37.5","","-41.5","","67","","","","9","","16","","24.1","","100.26","","","","-51","","Ice Crystals"
"-85.81","79.99","EUREKA A","2401203","2024-12-25 16:00","2024","12","25","16:00","","-37.3","","-41.2","","68","","","","8","","8","","24.1","","100.28","","","","-47","","Ice Crystals"
"-85.81","79.99","EUREKA A","2401203","2024-12-25 17:00","2024","12","25","17:00","","-36.3","","-40.2","","68","","","","8","","5","","24.1","","100.29","","","","-43","","Ice Crystals"
"-85.81","79.99","EUREKA A","2401203","2024-12-25 18:00","2024","12","25","18:00","","-36.9","","-40.9","","68","","","","10","","23","","24.1","","100.28","","","","-53","","Ice Crystals"
"-85.81","79.99","EUREKA A","2401203","2024-12-25 19:00","2024","12","25","19:00","","-36.7","","-40.6","","68","","","","11","","22","","24.1","","100.25","","","","-52","","Ice Crystals"
"-85.81","79.99","EUREKA A","2401203","2024-12-25 20:00","2024","12","25","20:00","","-37.9","","-41.9","","67","","","","6","","4","","24.1","","100.23","","","","-43","","Ice Crystals"
"-85.81","79.99","EUREKA A","2401203","2024-12-25 21:00","2024","12","25","21:00","","-36.9","","-40.8","","68","","","","10","","12","","24.1","","100.23","","","","-49","","Ice Crystals"
"-85.81","79.99","EUREKA A","2401203","2024-12-25 22:00","2024","12","25","22:00"
"-85.81","79.99","EUREKA A","2401203","2024-12-25 23:00","2024","12","25","23:00"
"-85.81","79.99","EUREKA A","2401203","2024-12-26 00:00","2024","12","26","00:00","","-36.7","","-40.6","","68","","","","9","","13","","24.1","","100.21","","","","-49","","Ice Crystals"
"-85.81","79.99","EUREKA A","2401203","2024-12-26 01:00","2024","12","26","01:00","","-36.4","","-40.4","","68","","","","7","","4","","24.1","","100.20","","","","-42","","Ice Crystals"
"-85.81","79.99","EUREKA A","2401203","2024-12-26 02:00","2024","12","26","02:00","","-37.0","","-41.0","","68","","","","7","","7","","24.1","","100.20","","","","-45","","Ice Crystals"
"-85.81","79.99","EUREKA A","2401203","2024-12-26 03:00","2024","12","26","03:00","","-35.6","","-39.5","","68","","","","8","","7","","24.1","","100.17","","","","-44","","Ice Crystals"
"-85.81","79.99","EUREKA A","2401203","2024-12-26 04:00","2024","12","26","04:00","","-35.7","","-39.6","","68","","","","9","","20","","24.1","","100.14","","","","-50","","Ice Crystals"
"-85.81","79.99","EUREKA A","2401203","2024-12-26 05:00","2024","12","26","05:00","","-36.5","","-40.4","","68","","","","11","","22","","24.1","","100.08","","","","-52","","Ice Crystals"
"-85.81","79.99","EUREKA A","2401203","2024-12-26 06:00","2024","12","26","06:00","","-35.7","","-39.6","","68","","","","11","","21","","24.1","","100.03","","","","-51","","Ice Crystals"
"-85.81","79.99","EUREKA A","2401203","2024-12-26 07:00","2024","12","26","07:00","","-34.4","","-38.2","","69","","","","9","","18","","24.1","","99.99","","","","-48","","Ice Crystals"
"-85.81","79.99","EUREKA A","2401203","2024-12-26 08:00","2024","12","26","08:00","","-33.5","","-37.3","","69","","","","8","","5","","24.1","","99.93","","","","-40","","Ice Crystals"
"-85.81","79.99","EUREKA A","2401203","2024-12-26 09:00","2024","12","26","09:00","","-33.2","","-36.9","","70","","","","9","","10","","24.1","","99.89","","","","-43","","Ice Crystals"
"-85.81","79.99","EUREKA A","2401203","2024-12-26 10:00","2024","12","26","10:00","","-31.6","","-35.2","","71","","","","2","","16","","24.1","","99.86","","","","-44","","Snow"
"-85.81","79.99","EUREKA A","2401203","2024-12-26 11:00","2024","12","26","11:00","","-30.1","","-33.6","","72","","","","11","","20","","24.1","","99.85","","","","-43","","Snow"
"-85.81","79.99","EUREKA A","2401203","2024-12-26 12:00","2024","12","26","12:00","","-28.4","","-31.8","","73","","","","14","","8","","24.1","","99.84","","","","-36","","Snow"
"-85.81","79.99","EUREKA A","2401203","2024-12-26 13:00","2024","12","26","13:00","","-26.6","","-29.9","","74","","","","11","","13","","24.1","","99.86","","","","-36","","Ice Crystals"
"-85.81","79.99","EUREKA A","2401203","2024-12-26 14:00","2024","12","26","14:00","","-23.2","","-26.3","","77","","","","13","","33","","24.1","","99.82","","","","-37","","Ice Crystals,Blowing Snow"
"-85.81","79.99","EUREKA A","2401203","2024-12-26 15:00","2024","12","26","15:00","","-22.3","","-25.3","","77","","","","13","","37","","24.1","","99.83","","","","-37","","Ice Crystals,Blowing Snow"
"-85.81","79.99","EUREKA A","2401203","2024-12-26 16:00","2024","12","26","16:00","","-21.0","","-23.8","","78","","","","12","","47","","16.1","","99.81","","","","-36","","Ice Crystals,Blowing Snow"
"-85.81","79.99","EUREKA A","2401203","2024-12-26 17:00","2024","12","26","17:00","","-20.1","","-22.9","","79","","","","14","","43","","16.1","","99.83","","","","-35","","Ice Crystals,Blowing Snow"
"-85.81","79.99","EUREKA A","2401203","2024-12-26 18:00","2024","12","26","18:00","","-19.2","","-21.9","","80","","","","13","","39","","16.1","","99.82","","","","-33","","Ice Crystals,Blowing Snow"
"-85.81","79.99","EUREKA A","2401203","2024-12-26 19:00","2024","12","26","19:00","","-19.4","","-22.0","","80","","","","13","","47","","9.7","","99.86","","","","-34","","Ice Crystals,Blowing Snow"
"-85.81","79.99","EUREKA A","2401203","2024-12-26 20:00","2024","12","26","20:00","","-18.9","","-21.5","","80","","","","13","","45","","3.2","","99.79","","","","-33","","Blowing Snow"
"-85.81","79.99","EUREKA A","2401203","2024-12-26 21:00","2024","12","26","21:00","","-18.7","","-21.2","","81","","","","13","","59","","4.0","","99.90","","","","-35","","Blowing Snow"
"-85.81","79.99","EUREKA A","2401203","2024-12-26 22:00","2024","12","26","22:00"
"-85.81","79.99","EUREKA A","2401203","2024-12-26 23:00","2024","12","26","23:00"
"-85.81","79.99","EUREKA A","2401203","2024-12-27 00:00","2024","12","27","00:00","","-18.0","","-20.5","","81","","","","11","","43","","9.7","","99.97","","","","-32","","Snow,Blowing Snow"
"-85.81","79.99","EUREKA A","2401203","2024-12-27 01:00","2024","12","27","01:00","","-17.9","","-20.4","","81","","","","13","","35","","4.8","","99.88","","","","-31","","Snow,Blowing Snow"
"-85.81","79.99","EUREKA A","2401203","2024-12-27 02:00","2024","12","27","02:00","","-17.5","","-19.9","","82","","","","17","","35","","4.8","","99.90","","","","-30","","Snow,Blowing Snow"
"-85.81","79.99","EUREKA A","2401203","2024-12-27 03:00","2024","12","27","03:00","","-17.4","","-19.8","","82","","","","17","","34","","2.4","","99.96","","","","-30","","Snow,Blowing Snow"
"-85.81","79.99","EUREKA A","2401203","2024-12-27 04:00","2024","12","27","04:00","","-17.3","","-19.6","","82","","","","14","","36","","2.4","","99.97","","","","-30","","Snow,Blowing Snow"
"-85.81","79.99","EUREKA A","2401203","2024-12-27 05:00","2024","12","27","05:00","","-17.0","","-19.4","","82","","","","17","","33","","0.8","","100.05","","","","-29","","Snow,Blowing Snow"
"-85.81","79.99","EUREKA A","2401203","2024-12-27 06:00","2024","12","27","06:00","","-17.1","","-19.4","","82","","","","15","","19","","0.8","","100.13","","","","-27","","Snow,Blowing Snow"
"-85.81","79.99","EUREKA A","2401203","2024-12-27 07:00","2024","12","27","07:00","","-17.1","","-19.5","","82","","","","18","","34","","0.8","","100.17","","","","-29","","Snow,Blowing Snow"
"-85.81","79.99","EUREKA A","2401203","2024-12-27 08:00","2024","12","27","08:00","","-17.2","","-19.5","","82","","","","15","","30","","1.6","","100.25","","","","-29","","Snow,Blowing Snow"
"-85.81","79.99","EUREKA A","2401203","2024-12-27 09:00","2024","12","27","09:00","","-17.2","","-19.5","","82","","","","16","","28","","4.0","","100.27","","","","-29","","Snow,Blowing Snow"
"-85.81","79.99","EUREKA A","2401203","2024-12-27 10:00","2024","12","27","10:00","","-17.5","","-19.9","","82","","","","16","","25","","9.7","","100.34","","","","-28","","Snow,Blowing Snow"
"-85.81","79.99","EUREKA A","2401203","2024-12-27 11:00","2024","12","27","11:00","","-18.6","","-21.0","","81","","","","14","","17","","16.1","","100.39","","","","-28","","Snow,Blowing Snow"
"-85.81","79.99","EUREKA A","2401203","2024-12-27 12:00","2024","12","27","12:00","","-19.1","","-21.6","","81","","","","10","","31","","24.1","","100.50","","","","-32","","Snow"
"-85.81","79.99","EUREKA A","2401203","2024-12-27 13:00","2024","12","27","13:00","","-18.9","","-21.4","","81","","","","10","","25","","24.1","","100.56","","","","-30","","Ice Crystals"
"-85.81","79.99","EUREKA A","2401203","2024-12-27 14:00","2024","12","27","14:00","","-18.4","","-20.8","","82","","","","12","","27","","24.1","","100.65","","","","-30","","Ice Crystals"
"-85.81","79.99","EUREKA A","2401203","2024-12-27 15:00","2024","12","27","15:00","","-18.1","","-20.5","","82","","","","11","","32","","24.1","","100.73","","","","-30","","Ice Crystals"
"-85.81","79.99","EUREKA A","2401203","2024-12-27 16:00","2024","12","27","16:00","","-18.4","","-20.9","","81","","","","11","","25","","24.1","","100.79","","","","-30","","Ice Crystals"
"-85.81","79.99","EUREKA A","2401203","2024-12-27 17:00","2024","12","27","17:00","","-17.9","","-20.3","","82","","","","11","","34","","24.1","","100.88","","","","-30","","Ice Crystals"
"-85.81","79.99","EUREKA A","2401203","2024-12-27 18:00","2024","12","27","18:00","","-18.1","","-20.5","","82","","","","13","","23","","24.1","","100.91","","","","-29","","Ice Crystals"
"-85.81","79.99","EUREKA A","2401203","2024-12-27 19:00","2024","12","27","19:00","","-18.1","","-20.5","","82","","","","10","","18","","24.1","","100.96","","","","-28","","Ice Crystals"
"-85.81","79.99","EUREKA A","2401203","2024-12-27 20:00","2024","12","27","20:00","","-18.4","","-20.9","","81","","","","11","","21","","24.1","","100.99","","","","-29","","Ice Crystals"
"-85.81","79.99","EUREKA A","2401203","2024-12-27 21:00","2024","12","27","21:00","","-18.6","","-21.0","","82","","","","10","","19","","24.1","","101.03","","","","-28","","Ice Crystals"
"-85.81","79.99","EUREKA A","2401203","2024-12-27 22:00","2024","12","27","22:00"
"-85.81","79.99","EUREKA A","2401203","2024-12-27 23:00","2024","12","27","23:00"
"-85.81","79.99","EUREKA A","2401203","2024-12-28 00:00","2024","12","28","00:00","","-19.1","","-21.6","","81","","","","12","","31","","24.1","","101.13","","","","-32","","Ice Crystals"
"-85.81","79.99","EUREKA A","2401203","2024-12-28 01:00","2024","12","28","01:00","","-18.1","","-20.5","","82","","","","13","","36","","24.1","","101.13","","","","-31","","Ice Crystals"
"-85.81","79.99","EUREKA A","2401203","2024-12-28 02:00","2024","12","28","02:00","","-18.3","","-20.7","","82","","","","12","","40","","24.1","","101.16","","","","-32","","Ice Crystals"
"-85.81","79.99","EUREKA A","2401203","2024-12-28 03:00","2024","12","28","03:00","","-17.6","","-20.0","","82","","","","12","","35","","24.1","","101.19","","","","-30","","Ice Crystals"
"-85.81","79.99","EUREKA A","2401203","2024-12-28 04:00","2024","12","28","04:00","","-17.3","","-19.6","","83","","","","12","","37","","24.1","","101.20","","","","-30","","Ice Crystals"
"-85.81","79.99","EUREKA A","2401203","2024-12-28 05:00","2024","12","28","05:00","","-16.7","","-19.0","","83","","","","12","","45","","24.1","","101.18","","","","-30","","Ice Crystals,Blowing Snow"
"-85.81","79.99","EUREKA A","2401203","2024-12-28 06:00","2024","12","28","06:00","","-16.1","","-18.3","","83","","","","13","","42","","24.1","","101.16","","","","-29","","Ice Crystals,Blowing Snow"
"-85.81","79.99","EUREKA A","2401203","2024-12-28 07:00","2024","12","28","07:00","","-15.7","","-17.8","","84","","","","13","","42","","24.1","","101.14","","","","-29","","Ice Crystals,Blowing Snow"
"-85.81","79.99","EUREKA A","2401203","2024-12-28 08:00","2024","12","28","08:00","","-15.6","","-17.8","","84","","","","12","","35","","24.1","","101.10","","","","-28","","Ice Crystals,Blowing Snow"
"-85.81","79.99","EUREKA A","2401203","2024-12-28 09:00","2024","12","28","09:00","","-14.9","","-16.9","","84","","","","13","","33","","24.1","","101.11","","","","-26","","Ice Crystals,Blowing Snow"
"-85.81","79.99","EUREKA A","2401203","2024-12-28 10:00","2024","12","28","10:00","","-14.9","","-17.0","","84","","","","16","","30","","24.1","","101.08","","","","-26","","Ice Crystals,Blowing Snow"
"-85.81","79.99","EUREKA A","2401203","2024-12-28 11:00","2024","12","28","11:00","","-15.2","","-17.4","","83","","","","11","","37","","24.1","","101.13","","","","-27","","Ice Crystals,Blowing Snow"
"-85.81","79.99","EUREKA A","2401203","2024-12-28 12:00","2024","12","28","12:00","","-14.5","","-16.9","","83","","","","13","","37","","9.7","","101.00","","","","-26","","Ice Crystals,Blowing Snow"
"-85.81","79.99","EUREKA A","2401203","2024-12-28 13:00","2024","12","28","13:00","","-13.8","","-16.9","","78","","","","20","","32","","16.1","","101.10","","","","-25","","Ice Crystals,Blowing Snow"
"-85.81","79.99","EUREKA A","2401203","2024-12-28 14:00","2024","12","28","14:00","","-14.5","","-18.0","","75","","","","11","","47","","24.1","","101.13","","","","-28","","Blowing Snow"
"-85.81","79.99","EUREKA A","2401203","2024-12-28 15:00","2024","12","28","15:00","","-15.0","","-18.0","","78","","","","12","","32","","16.1","","101.02","","","","-26","","Blowing Snow"
"-85.81","79.99","EUREKA A","2401203","2024-12-28 16:00","2024","12","28","16:00","","-14.7","","-17.5","","79","","","","17","","34","","2.4","","100.94","","","","-26","","Blowing Snow"
"-85.81","79.99","EUREKA A","2401203","2024-12-28 17:00","2024","12","28","17:00","","-14.7","","-17.6","","79","","","","11","","45","","2.4","","100.88","","","","-28","","Blowing Snow"
"-85.81","79.99","EUREKA A","2401203","2024-12-28 18:00","2024","12","28","18:00","","-14.2","","-16.9","","80","","","","16","","45","","1.0","","100.84","","","","-27","","Blowing Snow"
"-85.81","79.99","EUREKA A","2401203","2024-12-28 19:00","2024","12","28","19:00","","-14.2","","-17.2","","79","","","","16","","40","","4.8","","100.84","","","","-26","","Blowing Snow"
"-85.81","79.99","EUREKA A","2401203","2024-12-28 20:00","2024","12","28","20:00","","-14.1","","-17.4","","77","","","","16","","54","","2.4","","100.98","","","","-28","","Blowing Snow"
"-85.81","79.99","EUREKA A","2401203","2024-12-28 21:00","2024","12","28","21:00","","-13.7","","-17.1","","76","","","","12","","41","","0.8","","100.90","","","","-26","","Blowing Snow"
"-85.81","79.99","EUREKA A","2401203","2024-12-28 22:00","2024","12","28","22:00"
"-85.81","79.99","EUREKA A","2401203","2024-12-28 23:00","2024","12","28","23:00"
"-85.81","79.99","EUREKA A","2401203","2024-12-29 00:00","2024","12","29","00:00","","-13.5","","-17.1","","75","","","","16","","49","","2.4","","100.97","","","","-26","","Blowing Snow"
"-85.81","79.99","EUREKA A","2401203","2024-12-29 01:00","2024","12","29","01:00","","-13.3","","-16.7","","76","","","","16","","55","","2.4","","100.94","","","","-27","","Blowing Snow"
"-85.81","79.99","EUREKA A","2401203","2024-12-29 02:00","2024","12","29","02:00","","-12.9","","-16.3","","76","","","","17","","53","","2.4","","100.93","","","","-26","","Blowing Snow"
"-85.81","79.99","EUREKA A","2401203","2024-12-29 03:00","2024","12","29","03:00","","-12.9","","-16.4","","75","","","","16","","42","","2.4","","100.92","","","","-25","","Blowing Snow"
"-85.81","79.99","EUREKA A","2401203","2024-12-29 04:00","2024","12","29","04:00","","-13.3","","-16.8","","76","","","","14","","54","","2.4","","100.94","","","","-27","","Blowing Snow"
"-85.81","79.99","EUREKA A","2401203","2024-12-29 05:00","2024","12","29","05:00","","-13.4","","-17.1","","74","","","","12","","64","","3.2","","100.98","","","","-28","","Blowing Snow"
"-85.81","79.99","EUREKA A","2401203","2024-12-29 06:00","2024","12","29","06:00","","-13.4","","-16.7","","76","","","","15","","59","","4.0","","100.94","","","","-27","","Blowing Snow"
"-85.81","79.99","EUREKA A","2401203","2024-12-29 07:00","2024","12","29","07:00","","-13.0","","-16.7","","74","","","","14","","55","","9.7","","100.94","","","","-26","","Blowing Snow"
"-85.81","79.99","EUREKA A","2401203","2024-12-29 08:00","2024","12","29","08:00","","-13.3","","-16.6","","76","","","","14","","54","","9.7","","100.87","","","","-27","","Blowing Snow"
"-85.81","79.99","EUREKA A","2401203","2024-12-29 09:00","2024","12","29","09:00","","-12.7","","-15.6","","79","","","","16","","46","","8.1","","100.84","","","","-25","","Blowing Snow"
"-85.81","79.99","EUREKA A","2401203","2024-12-29 10:00","2024","12","29","10:00","","-12.3","","-15.8","","75","","","","15","","49","","3.2","","100.72","","","","-25","","Blowing Snow"
"-85.81","79.99","EUREKA A","2401203","2024-12-29 11:00","2024","12","29","11:00","","-12.3","","-15.8","","75","","","","15","","65","","3.2","","100.85","","","","-26","","Blowing Snow"
"-85.81","79.99","EUREKA A","2401203","2024-12-29 12:00","2024","12","29","12:00","","-12.5","","-15.3","","80","","","","18","","81","","0.4","","100.55","","","","-28","","Blowing Snow"
"-85.81","79.99","EUREKA A","2401203","2024-12-29 13:00","2024","12","29","13:00","","-12.7","","-15.5","","79","","","","17","","60","","2.4","","100.67","","","","-26","","Blowing Snow"
"-85.81","79.99","EUREKA A","2401203","2024-12-29 14:00","2024","12","29","14:00","","-12.8","","-15.4","","81","","","","17","","61","","2.4","","100.54","","","","-27","","Blowing Snow"
"-85.81","79.99","EUREKA A","2401203","2024-12-29 15:00","2024","12","29","15:00","","-12.9","","-15.6","","80","","","","18","","57","","2.4","","100.68","","","","-26","","Blowing Snow"
"-85.81","79.99","EUREKA A","2401203","2024-12-29 16:00","2024","12","29","16:00","","-13.1","","-15.7","","81","","","","18","","35","","24.1","","100.88","","","","-24","","Blowing Snow"
"-85.81","79.99","EUREKA A","2401203","2024-12-29 17:00","2024","12","29","17:00","","-13.0","","-15.4","","83","","","","17","","46","","16.1","","100.83","","","","-25","","Blowing Snow"
"-85.81","79.99","EUREKA A","2401203","2024-12-29 18:00","2024","12","29","18:00","","-12.7","","-15.8","","78","","","","17","","46","","12.9","","100.79","","","","-25","","Blowing Snow"
"-85.81","79.99","EUREKA A","2401203","2024-12-29 19:00","2024","12","29","19:00","","-12.6","","-15.9","","77","","","","15","","40","","12.9","","100.79","","","","-24","","Blowing Snow"
"-85.81","79.99","EUREKA A","2401203","2024-12-29 20:00","2024","12","29","20:00","","-12.8","","-15.6","","80","","","","17","","48","","9.7","","100.67","","","","-25","","Blowing Snow"
"-85.81","79.99","EUREKA A","2401203","2024-12-29 21:00","2024","12","29","21:00","","-13.0","","-15.6","","81","","","","18","","45","","12.9","","100.72","","","","-25","","Blowing Snow"
"-85.81","79.99","EUREKA A","2401203","2024-12-29 22:00","2024","12","29","22:00"
"-85.81","79.99","EUREKA A","2401203","2024-12-29 23:00","2024","12","29","23:00"
"-85.81","79.99","EUREKA A","2401203","2024-12-30 00:00","2024","12","30","00:00","","-12.4","","-16.2","","73","","","","15","","55","","4.8","","100.47","","","","-26","","Blowing Snow"
"-85.81","79.99","EUREKA A","2401203","2024-12-30 01:00","2024","12","30","01:00","","-12.4","","-16.0","","74","","","","15","","50","","4.8","","100.42","","","","-25","","Blowing Snow"
"-85.81","79.99","EUREKA A","2401203","2024-12-30 02:00","2024","12","30","02:00","","-12.2","","-15.8","","75","","","","15","","66","","4.8","","100.35","","","","-26","","Blowing Snow"
"-85.81","79.99","EUREKA A","2401203","2024-12-30 03:00","2024","12","30","03:00","","-12.2","","-15.7","","76","","","","17","","68","","2.4","","100.42","","","","-26","","Blowing Snow"
"-85.81","79.99","EUREKA A","2401203","2024-12-30 04:00","2024","12","30","04:00","","-12.1","","-16.1","","72","","","","17","","54","","1.6","","100.41","","","","-25","","Blowing Snow"
"-85.81","79.99","EUREKA A","2401203","2024-12-30 05:00","2024","12","30","05:00","","-12.3","","-16.4","","72","","","","16","","56","","2.4","","100.37","","","","-25","","Blowing Snow"
"-85.81","79.99","EUREKA A","2401203","2024-12-30 06:00","2024","12","30","06:00","","-12.4","","-15.9","","76","","","","18","","64","","4.0","","100.31","","","","-26","","Blowing Snow"
"-85.81","79.99","EUREKA A","2401203","2024-12-30 07:00","2024","12","30","07:00","","-12.3","","-16.6","","71","","","","18","","71","","4.8","","100.22","","","","-27","","Blowing Snow"
"-85.81","79.99","EUREKA A","2401203","2024-12-30 08:00","2024","12","30","08:00","","-12.4","","-16.3","","73","","","","17","","53","","8.1","","100.28","","","","-25","","Blowing Snow"
"-85.81","79.99","EUREKA A","2401203","2024-12-30 09:00","2024","12","30","09:00","","-12.7","","-16.1","","76","","","","18","","59","","8.1","","100.33","","","","-26","","Blowing Snow"
"-85.81","79.99","EUREKA A","2401203","2024-12-30 10:00","2024","12","30","10:00","","-12.9","","-15.9","","78","","","","18","","43","","9.7","","100.35","","","","-25","","Blowing Snow"
"-85.81","79.99","EUREKA A","2401203","2024-12-30 11:00","2024","12","30","11:00","","-13.9","","-16.9","","78","","","","19","","39","","24.1","","100.40","","","","-26","","Blowing Snow"
"-85.81","79.99","EUREKA A","2401203","2024-12-30 12:00","2024","12","30","12:00","","-14.8","","-18.0","","76","","","","27","","15","","16.1","","100.60","","","","-23","","Snow,Blowing Snow"
"-85.81","79.99","EUREKA A","2401203","2024-12-30 13:00","2024","12","30","13:00","","-15.8","","-21.2","","64","","","","26","","39","","24.1","","100.74","","","","-28","","Snow,Blowing Snow"
"-85.81","79.99","EUREKA A","2401203","2024-12-30 14:00","2024","12","30","14:00","","-19.0","","-22.7","","73","","","","2","","44","","16.1","","100.92","","","","-33","","Snow,Blowing Snow"
"-85.81","79.99","EUREKA A","2401203","2024-12-30 15:00","2024","12","30","15:00","","-21.5","","-25.8","","69","","","","36","","48","","24.1","","101.06","","","","-37","","Snow,Blowing Snow"
"-85.81","79.99","EUREKA A","2401203","2024-12-30 16:00","2024","12","30","16:00","","-22.5","","-28.0","","62","","","","35","","48","","24.1","","101.21","","","","-39","","NA"
"-85.81","79.99","EUREKA A","2401203","2024-12-30 17:00","2024","12","30","17:00","","-22.8","","-28.4","","61","","","","36","","28","","24.1","","101.38","","","","-36","","Blowing Snow"
"-85.81","79.99","EUREKA A","2401203","2024-12-30 18:00","2024","12","30","18:00","","-24.5","","-30.3","","60","","","","2","","20","","24.1","","101.48","","","","-36","","Blowing Snow"
"-85.81","79.99","EUREKA A","2401203","2024-12-30 19:00","2024","12","30","19:00","","-24.6","","-29.8","","63","","","","2","","23","","24.1","","101.58","","","","-37","","NA"
"-85.81","79.99","EUREKA A","2401203","2024-12-30 20:00","2024","12","30","20:00","","-23.8","","-30.5","","55","","","","26","","12","","24.1","","101.65","","","","-33","","NA"
"-85.81","79.99","EUREKA A","2401203","2024-12-30 21:00","2024","12","30","21:00","","-24.8","","-31.8","","53","","","","1","","18","","24.1","","101.73","","","","-36","","Clear"
"-85.81","79.99","EUREKA A","2401203","2024-12-30 22:00","2024","12","30","22:00"
"-85.81","79.99","EUREKA A","2401203","2024-12-30 23:00","2024","12","30","23:00"
"-85.81","79.99","EUREKA A","2401203","2024-12-31 00:00","2024","12","31","00:00","","-26.6","","-32.0","","61","","","","17","","13","","24.1","","101.91","","","","-36","","Clear"
"-85.81","79.99","EUREKA A","2401203","2024-12-31 01:00","2024","12","31","01:00","","-27.9","","-31.7","","70","","","","13","","37","","24.1","","101.92","","","","-44","","NA"
"-85.81","79.99","EUREKA A","2401203","2024-12-31 02:00","2024","12","31","02:00","","-28.1","","-32.5","","67","","","","12","","27","","24.1","","102.00","","","","-42","","NA"
"-85.81","79.99","EUREKA A","2401203","2024-12-31 03:00","2024","12","31","03:00","","-28.8","","-33.0","","67","","","","13","","33","","24.1","","102.08","","","","-45","","Clear"
"-85.81","79.99","EUREKA A","2401203","2024-12-31 04:00","2024","12","31","04:00","","-29.4","","-33.3","","70","","","","12","","33","","16.1","","102.08","","","","-45","","Blowing Snow"
"-85.81","79.99","EUREKA A","2401203","2024-12-31 05:00","2024","12","31","05:00","","-29.9","","-33.7","","70","","","","15","","24","","16.1","","102.09","","","","-44","","Blowing Snow"
"-85.81","79.99","EUREKA A","2401203","2024-12-31 06:00","2024","12","31","06:00","","-29.4","","-33.6","","68","","","","17","","31","","16.1","","102.07","","","","-45","","Blowing Snow"
"-85.81","79.99","EUREKA A","2401203","2024-12-31 07:00","2024","12","31","07:00","","-29.2","","-33.5","","67","","","","18","","41","","12.9","","102.05","","","","-47","","Blowing Snow"
"-85.81","79.99","EUREKA A","2401203","2024-12-31 08:00","2024","12","31","08:00","","-29.4","","-34.1","","65","","","","15","","37","","16.1","","102.05","","","","-46","","Blowing Snow"
"-85.81","79.99","EUREKA A","2401203","2024-12-31 09:00","2024","12","31","09:00","","-30.4","","-34.9","","66","","","","12","","51","","24.1","","102.07","","","","-50","","Blowing Snow"
"-85.81","79.99","EUREKA A","2401203","2024-12-31 10:00","2024","12","31","10:00","","-30.2","","-34.7","","66","","","","13","","45","","24.1","","102.06","","","","-49","","Blowing Snow"
"-85.81","79.99","EUREKA A","2401203","2024-12-31 11:00","2024","12","31","11:00","","-29.7","","-34.5","","64","","","","13","","47","","24.1","","102.05","","","","-48","","Blowing Snow"
"-85.81","79.99","EUREKA A","2401203","2024-12-31 12:00","2024","12","31","12:00","","-30.1","","-34.3","","67","","","","13","","47","","24.1","","102.07","","","","-49","","Blowing Snow"
"-85.81","79.99","EUREKA A","2401203","2024-12-31 13:00","2024","12","31","13:00","","-29.7","","-34.6","","63","","","","14","","41","","24.1","","102.05","","","","-47","","Blowing Snow"
"-85.81","79.99","EUREKA A","2401203","2024-12-31 14:00","2024","12","31","14:00","","-29.8","","-34.2","","66","","","","14","","40","","24.1","","102.03","","","","-47","","Blowing Snow"
"-85.81","79.99","EUREKA A","2401203","2024-12-31 15:00","2024","12","31","15:00","","-28.9","","-33.2","","67","","","","12","","54","","16.1","","101.95","","","","-48","","Blowing Snow"
"-85.81","79.99","EUREKA A","2401203","2024-12-31 16:00","2024","12","31","16:00","","-29.5","","-34.0","","65","","","","12","","48","","24.1","","101.91","","","","-48","","Blowing Snow"
"-85.81","79.99","EUREKA A","2401203","2024-12-31 17:00","2024","12","31","17:00","","-28.9","","-33.8","","64","","","","12","","43","","24.1","","101.84","","","","-47","","Blowing Snow"
"-85.81","79.99","EUREKA A","2401203","2024-12-31 18:00","2024","12","31","18:00","","-28.1","","-33.1","","63","","","","15","","32","","24.1","","101.85","","","","-44","","Blowing Snow"
"-85.81","79.99","EUREKA A","2401203","2024-12-31 19:00","2024","12","31","19:00","","-29.1","","-33.8","","64","","","","11","","40","","24.1","","101.81","","","","-46","","Blowing Snow"
"-85.81","79.99","EUREKA A","2401203","2024-12-31 20:00","2024","12","31","20:00","","-29.0","","-33.6","","65","","","","12","","41","","24.1","","101.74","","","","-46","","Blowing Snow"
"-85.81","79.99","EUREKA A","2401203","2024-12-31 21:00","2024","12","31","21:00","","-28.4","","-33.1","","65","","","","13","","39","","24.1","","101.75","","","","-45","","Blowing Snow"
"-85.81","79.99","EUREKA A","2401203","2024-12-31 22:00","2024","12","31","22:00"
"-85.81","79.99","EUREKA A","2401203","2024-12-31 23:00","2024","12","31","23:00"
